_id,Name,Name2,email,Online,FAX,Telephone,Telephone2,Address,City,State,ZIP,Notes,LastUpdated
687c10f5e7e9fed8c4bd828c,ALLIANCE MORTGAGE CO,ISAOA/ATIMA,,,,,,PO Box 2139,Jacksonville,Fl,26267,Mortgagee,2020-01-01 0:00
687c10f5e7e9fed8c4bd82af,ANDREWS FEDERAL CREDIT UNION,ISAOA,,,855-640-4865,,,PO BOX 961292,FORT WORTH,TX,76161-0292,,2020-01-01 0:00
687c10f5e7e9fed8c4bd82b8,ASTORIA FEDERAL SAVINGS AND LOAN,ISAOA / ATIMA,,,561-535-8103,800-430-9944,,P.O. BOX 57046,IRVINE,CA,92619-7046,,2020-01-01 0:00
687c10f5e7e9fed8c4bd82c9,"BANK OF AMERICA, NA #744",ISAOA/ATIMA,,,,,,P.O. Box 57060,Irvine,CA,92619-7060,Mortgagee,2020-01-01 0:00
687c10f5e7e9fed8c4bd82d7,BECU,,,,,,,PO BOX 202028,FLORENCE,SC,29502,Mortgagee,2020-01-01 0:00
687c10f5e7e9fed8c4bd82e0,BNC MORTGAGE INC,ISAOA/ATIMA,,,,,,PO Box 19656,Irvine,CA,92623-9656,Mortgagee,2020-01-01 0:00
687c10f5e7e9fed8c4bd82f7,"CAPITAL ONE, N.A.",ISAOA / ATIMA,,,843-413-7194,800-933-9100,,P.O. BOX 100595,FLORENCE,SC,29502-0595,,2020-01-01 0:00
687c10f5e7e9fed8c4bd8306,CENTURY 21 MORTGAGE,ISAOA,,,,,,P.O. BOX 5954,SPRINGFIELD,OH,45501,,2020-01-01 0:00
687c10f5e7e9fed8c4bd8313,CHURCHILL MORTGAGE CORPORATION,ISAOA / ATIMA,,,615-469-3282,615-730-8888,,"761 OLD HICKORY BLVD., SUITE 400",BRENTWOOD,TN,37027,,2020-01-01 0:00
687c10f5e7e9fed8c4bd831a,CITIBANK,ISAOA,,,937-324-6577,800-869-8683,,P.O. BOX 7807,SPRINGFIELD,OH,45501-7807,,2020-01-01 0:00
687c10f5e7e9fed8c4bd8325,CITIZENS STATE BANK MIDWEST,"PO Box 1250Bemidji, MN 56619",,,,,,1060 Paul Bunyan Dr NW,Bemidji,MN,56601,"Loss Payee, Mortgagee",2020-01-01 0:00
687c10f5e7e9fed8c4bd833e,CREDIT UNION OF TEXAS,,,,800-709-4820,800-314-3828,,,,,,Mortgagee,2020-01-01 0:00
687c10f5e7e9fed8c4bd836a,FBC MORTGAGE LLC,ISAOA,,,407872-3383,866-413-2563,,"189 SOUTH ORANGE AVENUE, SUITE 970",ORLANDO,FL,32801,,2020-01-01 0:00
687c10f5e7e9fed8c4bd8371,FIGURE LENDING LLC,ISAOA ATIMA,,https://www.myinsuranceinfo.com/,,800-998-0762,,PO BOX 2095,Carmel,IN,46082,,2020-01-01 0:00
687c10f5e7e9fed8c4bd8372,FINANCE OF AMERICA MORTGAGE LLC,,,,,,,PO BOX 99593,BELLEVUE,WA,98009,Mortgagee,2020-01-01 0:00
687c10f5e7e9fed8c4bd837e,FIRST FEDERAL BANK OF LOUISIANA,ISAOA/ATIMA,,,,337-433-3611,,PO BOX 1667,Lake Charles,LA,70602,Mortgagee,2020-01-01 0:00
687c10f5e7e9fed8c4bd8384,FIRST NATIONAL BANK BAGLEY,"PO Box NBagley, MN 56621",,,,,,,,,,Loss Payee,2020-01-01 0:00
687c10f5e7e9fed8c4bd8395,FLEET MORTGAGE CORPORATION,ISAOA/ATIMA,,,,,,P.O. Box 100562,Florence,SC,29501-0562,Mortgagee,2020-01-01 0:00
687c10f5e7e9fed8c4bd83a1,GECU,,,,,,,PO BOX 981529,EL PASO,TX,79998,Mortgagee,2020-01-01 0:00
687c10f5e7e9fed8c4bd83bf,HANCOCK BANK,,,,949-465-7253,866-242-7514,,P.O. BOX 57046,IRVINE,CA,92619-7046,,2020-01-01 0:00
687c10f5e7e9fed8c4bd83ee,JPMORGAN CHASE BANK NA,ISAOA/ATIMA,,https://mci3.mycoverageinfo.com/mci3/www/pages/views/Index.htm#/PolicyUpdate,678-475-8733,877-530-8951,,PO Box 100564,Florence,SC,29502-0564,Also known as Chase Manhatten Home Mortgage and Chase Home FinanceMortgagee,2020-01-01 0:00
687c10f5e7e9fed8c4bd83fc,"LIBERTY SAVINGS BANK, FSB",ISAOA / ATIMA,,,937-283-0104,937-382-1000,,P.O. BOX 1000,WILMINGTON,OH,45177-1000,,2020-01-01 0:00
687c10f5e7e9fed8c4bd8406,M & T BANK,ISAOA,,https://mycoverageinfo.com/mtb,937-525-4125,888-882-1847,,P.O. BOX 5738,SPRINGFIELD,OH,45501-5738,,2020-01-01 0:00
687c10f5e7e9fed8c4bd8414,"MGC MORTGAGE, INC.",ISAOA,insurancedepartment@ihaveinsurance.com,,949-465-7253,866-242-7514,,P.O. BOX 57046,IRVINE,CA,92619-7046,,2020-01-01 0:00
687c10f5e7e9fed8c4bd8422,MITSUBISHI MOTOR CREDIT,"PO Box 24020Tucson, AZ 85734",,,,,,,,,,Loss Payee,2020-01-01 0:00
687c10f5e7e9fed8c4bd8424,MORTGAGE CLEARING CORPORATION,,,,,,,PO BOX 702100,TULSA,OK,74170,Mortgagee,2020-01-01 0:00
687c10f5e7e9fed8c4bd842b,MOUNTAIN AMERICA CREDIT UNION,,,,,,,PO BOX 961292,FT WORTH,TX,76161,Mortgagee,2020-01-01 0:00
687c10f5e7e9fed8c4bd843d,NEIGHBORS FCU,,,,855-640-4865,225-819-4849,,,,,,Mortgagee,2020-01-01 0:00
687c10f5e7e9fed8c4bd8445,"NEW REZ MORTGAGE, LLC",ISAOA/ATIMA,insdocs@myinsuranceportal.com,,248-878-2370,877-491-7277,,PO BOX 7050,Troy,,,Mortgagee,2025-08-22 10:36
687c10f5e7e9fed8c4bd845b,OMNI,,,,,800-777-6664,,,,,,Mortgagee,2020-01-01 0:00
687c10f5e7e9fed8c4bd8465,PARKSIDE LENDING LLC ISAOA,,,,,,,PO BOX 202028,FLORENCE,SC,29502,Mortgagee,2020-01-01 0:00
687c10f5e7e9fed8c4bd827f,21ST MORTGAGE CORPORATION,ISAOA ATIMA,insurancetracking@21stmortgage.com,https://www.21stmortgage.com/web/21stsite.nsf/contactus,,800-955-0021,,PO BOX 477,KNOXVILLE,TN,37901-0477,,2020-01-01 0:00
687c10f5e7e9fed8c4bd8282,AAMES HOME LOAN INC.,ISAOA/ATIMA,,,,,,PO Box 57093,Irvine,CA,92619-7093,Mortgagee,2020-01-01 0:00
687c10f5e7e9fed8c4bd8284,ACADEMY MORTGAGE CORPORATION,ISAOA/ATIMA,,,843-413-7133,,,PO BOX 202028,FLORENCE,SC,29502,Mortgagee,2020-01-01 0:00
687c10f5e7e9fed8c4bd82b0,APG FINANCIAL (MARKOSIAN),"4238 Redwood RdTaylorsville, UT 84123-2220",toinsurance@markosianauto.com,,,,,801-886-1700,,,,Loss Payee,2020-01-01 0:00
687c10f5e7e9fed8c4bd82ba,"ATLANTIC MORTGAGE SERVICES, INC.",ISAOA / ATIMA,,,321-773-5570,800-373-3130,,"1790 HIGHWAY A1A, SUITE 101",SATELLITE BEACH,FL,32937,,2020-01-01 0:00
687c10f5e7e9fed8c4bd82bc,AURORA LOAN SERVICES,ISAOA / ATIMA,,,866-801-7176,800-732-6578,,P.O. BOX 2963,PHOENIX,AZ,85062-2963,,2020-01-01 0:00
687c10f5e7e9fed8c4bd82c7,"BANK OF AMERICA, NA #173",ISAOA/ATIMA,,,,,,P.O. Box 1504,Latham,NY,12110-8004,Mortgagee,2020-01-01 0:00
687c10f5e7e9fed8c4bd82ce,BANKUNITED NA,ISAOA/ATIMA,,,(866) 734-8163,(877) 779-2265,,PO Box 02-8569,Miami,Florida,33102,Mortgagee,2020-01-01 0:00
687c10f5e7e9fed8c4bd82f5,CAPITAL ONE,,,,843-413-7194,866-528-1572,,PO Box 961292,Ft Worth,TX,76161-0292,Mortgagee,2020-01-01 0:00
687c10f5e7e9fed8c4bd8300,CENLAR,"ISAOA / ATIMA, ISAOA",,https://www.mycoverageinfo.com/cen300,(843) 413-7133,800-223-6527,,"c/o Mortgage Servicing Center PO Box 202028, PO Box 202028",Florence,SC,29502,"Central Loan Administration & Reporting, Mortgagee",2020-01-01 0:00
687c10f5e7e9fed8c4bd830c,CHARTER ONE MORTGAGE CORP.,ISAOA / ATIMA,,,804-627-5767,800-234-6002,,P.O. BOX 5204,GLEN ALLEN,VA,23058-6220,,2020-01-01 0:00
687c10f5e7e9fed8c4bd831c,CITIMORTGAGE INC.,ISAOA,,,866-675-5772,877-530-8960,,P.O. BOX 7706,SPRINGFIELD,OH,45501-7706,,2020-01-01 0:00
687c10f5e7e9fed8c4bd832b,CLEARSPRING LOAN SERVICES INC,,,,,,,PO Box 25048,Dallas,TX,75225,Mortgagee,2020-01-01 0:00
687c10f5e7e9fed8c4bd8346,DAIMLER-CHRYSLER FINANCIAL CORP,"PO Box 600Horsham, PA 19044",,,,,,,,,,Loss Payee,2020-01-01 0:00
687c10f5e7e9fed8c4bd8352,EAGLE HOME MORTGAGE,,,,855-640-4865,,,PO Box 961292,Ft. Worth,TX,76161,Mortgagee,2020-01-01 0:00
687c10f5e7e9fed8c4bd836d,FIDELITY BANK D/B/A FIDELITY BANK MORTGAGE,ISAOA,,,,404-639-6500,,P.O. BOX 105075,ATLANTA,GA,30329,,2020-01-01 0:00
687c10f5e7e9fed8c4bd8374,"FINANCIAL FREEDOM A DIVISION OF ONE WEST BANK, FSB",ISAOA / ATIMA,,,800-203-3641,800-441-4428,,P.O. BOX 2972,PHOENIX,AZ,85062,REVERSE MORTGAGE COMPANY,2020-01-01 0:00
687c10f5e7e9fed8c4bd8378,FIRST BANK MORTGAGE,,,,,,,1 FIRST MISSOURI CTR,ST LOUIS,MO,63141,Mortgagee,2020-01-01 0:00
687c10f5e7e9fed8c4bd837c,FIRST FED BANK,,,,866-428-4467,855-512-5924,,,,,,Mortgagee,2020-01-01 0:00
687c10f5e7e9fed8c4bd8388,FIRST NATIONAL BANK OF WALKER,"PO Box 520Walker, MN 56484",,,,,,,,,,Loss Payee,2020-01-01 0:00
687c10f5e7e9fed8c4bd83ac,GOLDWATER BANK NA ISAOA,ISAOA,insurance@westloan.com,,,844-799-4653,,"2525 E. Camelback Rd, Suite 1100",Phoenix,AZ,85016,Mortgagee,2020-01-01 0:00
687c10f5e7e9fed8c4bd83ba,GUARANTEED RATE,,,,949-465-7253,866-242-7514,,PO Box 961292,Ft. Worth,TX,76161,Mortgagee,2020-01-01 0:00
687c10f5e7e9fed8c4bd83bd,"GUIDANCE RESIDENTIAL, LLC",,,,937-327-7707,866-484-3262,,PO BOX 7298,Springfield,,,Mortgagee,2020-01-01 0:00
687c10f5e7e9fed8c4bd83c5,"HOME FINANCING CENTER, INC.",ISAOA / ATIMA,insurance@homefinancingcenter.com,,754-223-3168,305-777-1100,,400 UNIVERSITY DRIVE #3,CORAL GABLES,FL,33134,,2020-01-01 0:00
687c10f5e7e9fed8c4bd83d5,HSBC MORTGAGE SERVICES,,,,,,,PO BOX 47207,DORAVILLE,GA,30362,Mortgagee,2020-01-01 0:00
687c10f5e7e9fed8c4bd83e1,"INDYMAC MORTGAGE SERVICES, A DIVISION OF ONE WEST","BNK, FSB ISAOA / ATIMA",,,888-882-1816,800-781-7399,,P.O. BOX 100511,FLORENCE,SC,29502-0511,,2020-01-01 0:00
687c10f5e7e9fed8c4bd83f5,LEADER MORTGAGE,ISAOA/ATIMA,,,,,,180 Massachusetts Avenue,Lexington,MA,2474,Mortgagee,2020-01-01 0:00
687c10f5e7e9fed8c4bd83f6,LEADERONE FINANCIAL CORP,,,,512-284-7249,512-576-6548,,,,,,Mortgagee,2020-01-01 0:00
687c10f5e7e9fed8c4bd83fa,LIBERTY BANK,,,,,866-224-0131,,,,,,Mortgagee,2020-01-01 0:00
687c10f5e7e9fed8c4bd83fe,LOAN CARE SERVICE CENTER,ISAOA/ATIMA,,,843-413-7127,866-822-0890,,PO Box 202049,Florence,SC,29502-2049,Mortgagee,2020-01-01 0:00
687c10f5e7e9fed8c4bd8403,LOGIX FEDERAL CREDIT UNION,ISAOA,,,,,,"P.O. BOX 57056, PO BOX 961292",IRVINE,CA,92619-7046,Mortgagee,2020-01-01 0:00
687c10f5e7e9fed8c4bd8412,MERITAGE MORTGAGE CORP.,ISAOA/ATIMA,,,,,,"6000 SW Meadows Rd., Suite 500",Lake Oswego,OR,97035,Mortgagee,2020-01-01 0:00
687c10f5e7e9fed8c4bd844b,NORTHERN TRUST COMPANY,ISAOA,,,305-789-1386,888-289-6542,,700 BRICKELL AVENUE,MIAMI,FL,33171,,2020-01-01 0:00
687c10f5e7e9fed8c4bd846f,PHH MORTGAGE SERVICES,"ISAOA / ATIMA, ISAOA/ATIMA",,https://www.mycoverageinfo.com/agent,937-521-4210,888-882-1855,800-210-8849,"P.O. BOX 5954, PO BOX 690230",SPRINGFIELD,OH,45501-5954,,2020-01-01 0:00
687c10f5e7e9fed8c4bd8470,PIONEER BANK,,,,,,,PO BOX 130,ROSWELL,NM,88202,Mortgagee,2020-01-01 0:00
687c10f5e7e9fed8c4bd8287,ACT MORTGAGE CAPITAL,ISAOA/ATIMA,,,,,,481 Sawgrass Corporate Pkwy,Sunrise,FL,33325,Mortgagee,2020-01-01 0:00
687c10f5e7e9fed8c4bd828e,ALPINE BANK OF ILLINOIS,ISAOA,,,815-395-6767,815-398-6568,,1700 N Alpine Rd,Rockford,IL,61107,Mortgagee,2020-01-01 0:00
687c10f5e7e9fed8c4bd828f,ALPINE CREDIT UNION,"1510 N State StOrem, UT 84057-2548",insurance@alpinecu.com,,,801-224-2586,,866-355-9425,,,,Loss Payee,2020-01-01 0:00
687c10f5e7e9fed8c4bd82a0,AMERICAS SERVICING CO,ISAOA/ATIMA,,,,800-662-5014,,PO Box 5106,Springfield,OH,45501-5106,Mortgagee,2020-01-01 0:00
687c10f5e7e9fed8c4bd82b3,ARVEST BANK,ISAOA/ATIMA,‚Å†escrowdocs@alliedsolutions.net,https://myinsuranceinfo.com/,(317) 229-6549,(866) 799-5358,,PO BOX 2845,Sioux City,IA,51106,Mortgagee - https://www.arvest.com/faq/where-do-i-send-proof-of-insurance,2025-09-10 14:50
687c10f5e7e9fed8c4bd82be,BAC HOME LOAN SERVICING,,,,,800-669-6607,,,,,,Formerly CountrywideMortgagee,2020-01-01 0:00
687c10f5e7e9fed8c4bd82ca,BANK OF ENGLAND D/B/A ENG LENDING,ISAOA / ATIMA,,,904-992-0011,904-992-1000,,"#5 STATE HOUSE PLAZA, STE 500",LITTLE ROCK,AR,72201,,2020-01-01 0:00
687c10f5e7e9fed8c4bd82d8,BENCHMARK,,,,609-718-5550,877-629-6996,,,,,,Mortgagee,2020-01-01 0:00
687c10f5e7e9fed8c4bd82e8,BSI FINANCIAL SERVICES,ISAOA/ATIMA,BSI@imcovered.com,https://bsi.imcovered.com/agent,888-330-2853,866-318-0206,,PO BOX 692440,San Antonio,TX,78269-1690,Mortgagee,2025-11-17 18:23
687c10f5e7e9fed8c4bd82fd,CATHAY BANK ISAOA,,,,,,,9650 FLAIR DR RS-16,EL MONTE,CA,91731,Mortgagee,2020-01-01 0:00
687c10f5e7e9fed8c4bd8303,CENTRAL LOAN ADMINISTRATION & REPORTING,ISAOA/ATIMA,cen300@mycoverageinfo.com,https://mycoverageinfo.com/cen300,843-413-7133,866-224-0136,,PO Box 202028,Florence,SC,29502,Also known as CENLARMortgagee,2020-01-01 0:00
687c10f5e7e9fed8c4bd832c,CMG MORTGAGE INC.,ISAOA/ATIMA,,https://mycoverageinfo.com/agent,843-413-7133,866-659-8989,,PO Box 202028,Florence,SC,29502,Mortgagee,2020-01-01 0:00
687c10f5e7e9fed8c4bd8335,COMMUNITY AMERICA CREDIT UNION,,,,,,,PO BOX 15010,LENEXA,KS,66285,Mortgagee,2020-01-01 0:00
687c10f5e7e9fed8c4bd8338,COMMUNITY TRUST BANK DBA CIMARRON,,,,,800-949-6699,,,,,,Mortgagee,2020-01-01 0:00
687c10f5e7e9fed8c4bd8349,DESERT SCHOOLS FED CR UN,,,,,,,PO BOX 29232,PHOENIX,AZ,85038,Mortgagee,2020-01-01 0:00
687c10f5e7e9fed8c4bd8351,E-TRADE,ISAOA / ATIMA,,,937-525-4210,800-449-8767,,P.O. BOX 5954,SPRINGFIELD,OH,45501-5954,,2020-01-01 0:00
687c10f5e7e9fed8c4bd8358,ENGLEWOOD BANK & TRUST,ISAOA / ATIMA,,,,941-475-6771,,1111 S. MCCALL RD.,ENGLEWOOD,FL,34224,,2020-01-01 0:00
687c10f5e7e9fed8c4bd8376,FIRST AMERICA BANK,ISAOA / ATIMA,,,941-729-8753,941-722-2992,,P.O. BOX 47020,BRADENTON,FL,34206,,2020-01-01 0:00
687c10f5e7e9fed8c4bd83b0,GREEN PLANET SERVICING,,,,248-878-2350,855-211-9690,,,,,,Mortgagee,2020-01-01 0:00
687c10f5e7e9fed8c4bd83b6,GROUP ONE MORTGAGE,ISAOA,,,561-743-3032,561-745-1200,,900 EAST INDIANTOWN ROAD #110,JUPITER,FL,33477,,2020-01-01 0:00
687c10f5e7e9fed8c4bd83bb,"GUARANTY RESIDENTIAL LENDING, INC.",,,,512-434-8723,800-964-9420,,PO Box 4874,Houston,TX,77210-4874,Mortgagee,2020-01-01 0:00
687c10f5e7e9fed8c4bd83c7,HOMEBANC MORTGAGE CORPORATION,ISAOA/ATIMA,,,904-733-2069,888-232-6233,,PO Box 24848,Jacksonville,FL,2241-,Mortgagee,2020-01-01 0:00
687c10f5e7e9fed8c4bd83dc,IDAHO HOUSING & FINANCE ASSOC,,,,208-331-4800,800-526-7145,,PO BOX 7899,BOISE,ID,83707,Mortgagee,2020-01-01 0:00
687c10f5e7e9fed8c4bd840f,MERCANTIL BANK N.A,ISAOA,,,305-629-1440,,,12496 NW 25 ST,MIAMI,FL,33182,,2020-01-01 0:00
687c10f5e7e9fed8c4bd8416,MICHIGAN MUTUAL INC.,ISAOA,,,949-465-7253,877-801-2266,,P.O. BOX 57046,IRVINE,CA,97619-7046,,2020-01-01 0:00
687c10f5e7e9fed8c4bd841a,MIDFIRST MORTGAGE,ISAOA / ATIMA,,,855-768-2910,866-439-2712,,P.O. BOX 163529,FORTH WORTH,TX,76161-3529,,2020-01-01 0:00
687c10f5e7e9fed8c4bd8428,"MORTGAGE RESEARCH CENTER, LLC",ISAOA,,,,800-884-5560,,1400 Veterans United Drive,Columbia,MO,65203,Mortgagee,2020-01-01 0:00
687c10f5e7e9fed8c4bd8437,"NATIONSTAR MORTGAGE, LLC",ISAOA/ATIMA,,,800-687-4729,866-825-9267,,PO Box 7729,Springfield,OH,45501-7729,Mortgagee,2020-01-01 0:00
687c10f5e7e9fed8c4bd843b,NBKC BANK,ISAOA,,,(588) 640-4865,855-230-0480,,P.O. Box 961292,Fort Worth,TX,76161,Mortgagee,2020-01-01 0:00
687c10f5e7e9fed8c4bd844c,NORTHPOINTE BANK,ISAOA/ATIMA,,,,877-491-7285,,P.O. Box 7111,Troy,MI,48007,Mortgagee,2020-01-01 0:00
687c10f5e7e9fed8c4bd8450,NOVASTAR MORTGAGE INC.,ISAOA/ATIMA,,,,,,P.O. Box 2937,Shawnee Mission,KS,68201,Mortgagee,2020-01-01 0:00
687c10f5e7e9fed8c4bd845d,ONE REVERSE MORTGAGE,ISAOA / ATIMA,,,877-616-0578,800-579-9411,,9740 SCRANTON ROAD #300,SAN DIEGO,CA,92121,,2020-01-01 0:00
687c10f5e7e9fed8c4bd845e,ONPOINT COMMUNITY CREDIT UNION,,,,,,,PO BOX 3755,PORTLAND,OR,97208,Mortgagee,2020-01-01 0:00
687c10f5e7e9fed8c4bd8280,"360 MORTGAGE GROUP, LLC",,,,855-588-6608,855-283-2436,,PO BOX 99595,Bellevu,WA,98009,Mortgagee,2020-01-01 0:00
687c10f5e7e9fed8c4bd82a3,"AMERIHOME MORTGAGE CO, LLC",ISAOA/ATIMA,,https://mycoverageinfo.com/cen300,843-413-7133,866-224-0136,,PO Box 202028,Florence,SC,29502,Mortgagee,2020-01-01 0:00
687c10f5e7e9fed8c4bd82a9,AMERISAVE MORTGAGE CORPORATION,ISAOA ATIMA,,https://www.amerisave.com/customer-care/,855-640-4865,1-877-538-8781,,"PO BOX 961292, PO BOX 961292",FORT WORTH,TX,76161-0292,,2020-01-01 0:00
687c10f5e7e9fed8c4bd82dd,BMO HARRIS BANK,"PO Box 660310Sacramento, CA 95866",,,,,,,,,,Loss Payee,2020-01-01 0:00
687c10f5e7e9fed8c4bd82f8,CAPITOL FEDERAL SAVINGS BANK,,,,,,,700 SOUTH KANSAS AVENUE,TOPEKA,KS,66603,Mortgagee,2020-01-01 0:00
687c10f5e7e9fed8c4bd82fe,CELINK,ISAOA,taxandinsurance@reversedepartment.com,,(866) 616-2160,800-761-0073,,"P.O. BOX 39457, PO BOX 39457",SOLON,OH,44139-0457,Mortgagee,2020-01-01 0:00
687c10f5e7e9fed8c4bd8308,CH MORTGAGE LTD,ISAOA,,,847-549-9784,847-549-1494,,12554 Riata Vista Cir 1st Floor,Austin,TX,78727,Mortgagee,2020-01-01 0:00
687c10f5e7e9fed8c4bd8314,CIRCLE MORTGAGE CORPORATION,"ISAOA, ISAOA",,,954-981-6800,800-516-1338,866-654-0020,"6600 TAFT STREET, 4TH FLOOR, P.O. BOX 39457",HOLLEYWOOD,FL,33024,REVERSE MORTGAGE,2020-01-01 0:00
687c10f5e7e9fed8c4bd8332,COMERCIA BANK,,,,800-936-0908,888-882-1855,,,,,,Mortgagee,2020-01-01 0:00
687c10f5e7e9fed8c4bd835e,ESSENTIAL FCU (DOW FCU),,,,225-414-3953,225-379-5116,,,,,,Mortgagee,2020-01-01 0:00
687c10f5e7e9fed8c4bd8362,EVERETT FINANCIAL INC,ISAOA/ATIMA,,,248-878-2435,866-219-0032,,PO Box 7057,Troy,MI,48007,Mortgagee,2020-01-01 0:00
687c10f5e7e9fed8c4bd836f,FIFTH THIRD BANK,"PO Box 391197Solon, OH 44139",,,,,,,,,,Loss Payee,2020-01-01 0:00
687c10f5e7e9fed8c4bd837f,FIRST HOME BANK,ISAOA,,,727-394-2267,727-394-2265,,9190 SEMINOLE BLVD.,SEMINOLE,FL,33772-3148,,2020-01-01 0:00
687c10f5e7e9fed8c4bd8389,FIRST NATIONAL MORTGAGE CORP,,,,,,,PO Box 7706,Springfield,OH,45501-7706,Mortgagee,2020-01-01 0:00
687c10f5e7e9fed8c4bd839b,"FORTRESS LENDING, LLC.",ISAOA/ATIMA,,,,,,3303 Gillham Road,Kansas City,MO,64109,Mortgagee,2020-01-01 0:00
687c10f5e7e9fed8c4bd83a8,GMFS LLC,ISAOA/ATIMA,,,843-413-7133,866-305-6946,,"GMFS, LLC ISAOA/ATIMA c/o Specialized Loan Servicing",PO Box 620188,Atlanta,,Mortgagee,2020-01-01 0:00
687c10f5e7e9fed8c4bd83a9,GOLDEN 1 CREDIT UNION,,,,,,,PO BOX 961292,FT WORTH,TX,76161,Mortgagee,2020-01-01 0:00
687c10f5e7e9fed8c4bd83d8,IBERIA BANK ISAOA/ATIMA,ISAOA/ATIMA,IMServicing@iberiabank.com,,,800-525-9651,,PO BOX 12440,New Iberia,LA,70562,Mortgagee,2020-01-01 0:00
687c10f5e7e9fed8c4bd8281,A&D MORTGAGE LLC,ISAOA/ATIMA,,,855-640-4865,866-242-7514,,1040 S Federal Highway,Hollywood,FL,33020,insurance@admortgage.com insurancedepartment@ihaveinsurance.com,2025-07-19 20:12
687c10f5e7e9fed8c4bd8288,AEGIS WHOLESALE CORPORATION,ISAOA/ATIMA,,,,888-882-1836,,PO Box 7739,Springfield,OH,45501-,Mortgagee,2020-01-01 0:00
687c10f5e7e9fed8c4bd829f,AMERICAN SUZUKI FINANCIAL SERVICES,"PO Box 8143Cockeysville, MD 21030",,,,,,,,,,"Loss Payee - Theabove is for loans. Here is thefor leases: PO Box 8105; Cockeysville, MN 21030.",2020-01-01 0:00
687c10f5e7e9fed8c4bd82b9,ATLANTA POSTAL CREDIT UNION,ISAOA / ATIMA,,,,,,3900 CROWN RD.,ATLANTA,GA,30380,,2020-01-01 0:00
687c10f5e7e9fed8c4bd82c0,POPULAR MORTGAGE SERVICES, Its Successors and/or Assigns,segurospropiedad@popular.com,https://mycoverageinfo.com/agent/,937-525-4210,787-724-3659,,PO Box 5954,Springfield,OH,45501-5954,,2025-11-18 12:37
687c10f5e7e9fed8c4bd82c8,"BANK OF AMERICA, NA #602",ISAOA/ATIMA,,,,,,P.O. Box 2325,Corapolis,PA,15108-6924,Mortgagee,2020-01-01 0:00
687c10f5e7e9fed8c4bd82ef,"CALIBER FUNDING, LLC  ISAOA / ATIMA",c/o CENLAR,,,,,,P.O. BOX 202028,FLORENCE,SC,29502-2028,,2020-01-01 0:00
687c10f5e7e9fed8c4bd82f6,CAPITAL ONE AUTO FINANCE,"PO Box 390907Minneapolis, MN 55439",,,,,,,,,,Loss Payee,2020-01-01 0:00
687c10f5e7e9fed8c4bd830f,CHEVRON FEDERAL CREDIT UNION,ISAOA/ATIMA,,,510-627-5023,800-232-8101,,PO BOX 5507,Norwell,MA,2061,Mortgagee,2020-01-01 0:00
687c10f5e7e9fed8c4bd8312,CHRYSLER FINANCIAL,"PO Box 3050Coraopolis, PA 15108",,,,,,,,,,Loss Payee,2020-01-01 0:00
687c10f5e7e9fed8c4bd8337,COMMUNITY FIRST CREDIT UNION,ISAOA / ATIMA c/o CENLAR,,,817-826-1697,866-843-2513,,P.O. BOX 202028,FLORENCE,SC,29502-2028,,2020-01-01 0:00
687c10f5e7e9fed8c4bd8343,CTX MORTGAGE COMPANY,ISAOA/ATIMA,,,,,,P.O. Box 199000,Dallas,TX,75219-9000,Mortgagee,2020-01-01 0:00
687c10f5e7e9fed8c4bd8354,EFCU,,,,,225-214-6800,,,,,,Mortgagee,2020-01-01 0:00
687c10f5e7e9fed8c4bd8357,EMC MORTGAGE CORPORATION,"ISAOA, ISAOA/ATIMA",,,937-525-8926,877-406-4372,,"P.O. BOX 7589, PO Box 7589",SPRINGFIELD,OH,45501-7589,Mortgagee,2020-01-01 0:00
687c10f5e7e9fed8c4bd8369,FAY SERVICING LLC (COMMERCIAL LOANS),ISAOA ATIMA,,https://www.ihavecoverage.com/,,1-800-495-7166,,PO BOX 3644,SPRIENGFIELD,OH,45501,FayServicing@MyCoverageInfo.com,2020-01-01 0:00
687c10f5e7e9fed8c4bd8380,FIRST HORIZON HOME LOAN A DIV OF,ISAOA,,,,866-497-0529,,PO Box 100564,Florence,SC,29502-0564,Mortgagee,2020-01-01 0:00
687c10f5e7e9fed8c4bd8387,FIRST NATIONAL BANK OF OMAHA,,,,402-938-5370,402-602-8902,,1620 DODGE ST STOP 3166,OMAHA,NE,68197,Mortgagee,2020-01-01 0:00
687c10f5e7e9fed8c4bd8398,FLORIDA HOME TRUST MORTGAGE INC,ISAOA / ATIMA,servicing@floridahometrust.com,,(954) 438-0065,(954) 252-2542,,2800 WESTON ROAD SUITE 200,WESTON,FL,33331,FACEBANK,2020-01-01 0:00
687c10f5e7e9fed8c4bd83b2,GREEN TREE SERVICING LLC,,,,866-263-8962,800-643-0202,,PO Box 979282,Miami,FL,33197,Mortgagee,2020-01-01 0:00
687c10f5e7e9fed8c4bd83c4,"HOME FINANCE CENTER, INC.",ISAOA / ATIMA,insurance@homefinancingcenter.com,,754-223-3168,305-777-1100,,400 UNIVERSITY DR. 3RD FLOOR,CORAL GABLES,FL,33134,,2020-01-01 0:00
687c10f5e7e9fed8c4bd840c,MB FINANCIAL BANK NA ISAOA,,mbfinancialteam@pfic.com,,248-878-2405,855-862-4205,,PO BOX 7059,TROY,MI,48007,Mortgagee,2020-01-01 0:00
687c10f5e7e9fed8c4bd8413,"METLIFE HOME LOANS, A DIVISION OF METLIFE BANK, NA",ISAOA,,,937-324-6572,866-411-8905,,P.O. BOX 7481,SPRINGFIELD,OH,45501,,2020-01-01 0:00
687c10f5e7e9fed8c4bd842c,MOUNTAIN AMERICA CU,"PO Box 9001W Jordan, UT 84084-9001",,,,866-238-0987,,800-570-9958,,,,Loss Payee,2020-01-01 0:00
687c10f5e7e9fed8c4bd8430,MR COOPER LLC,ISAOA/ATIMA,,https://mycoverageinfo.com/policy,800-687-4729,866-825-9267,,PO BOX 7729,Springfield,,,Mortgagee,2020-01-01 0:00
687c10f5e7e9fed8c4bd8439,NATIONWIDE ADVANTAGE MORTGAGE CO.,ISAOA / ATIMA,,,248-824-7901,,,P.O. BOX 844411,TROY,MI,48007-4411,,2020-01-01 0:00
687c10f5e7e9fed8c4bd843f,"NETWORK FUNDING, LP",,,,855-640-4865,866-242-7514,,,,,,Mortgagee,2020-01-01 0:00
687c10f5e7e9fed8c4bd8446,NEW YORK COMMUNITY BANK,"ISAOA, ISAOA/ATIMA",insurancedepartment@ihaveinsurance.com,https://www.ihaveinsurance.com/servicemac,937-525-8799,888-455-7288,,"P.O. BOX 8326, PO BOX 5932",SPRINGFIELD,OH,45501,"https://www.ihaveinsurance.com/servicemac, Mortgagee, , NYCBInsurance@pfic.com",2020-01-01 0:00
687c10f5e7e9fed8c4bd8466,PARTNERS FEDERAL CREDIT UNION,ISAOA,,,407-938-4553,407-354-5180,,P.O. BOX 22161,LAKE BUENA VISTA,FL,32830,,2020-01-01 0:00
687c10f5e7e9fed8c4bd846c,PENTAGON FEDERAL CREDIT UNION,ISAOA,,,703-633-7091,800-970-7766,800-585-9055,"P.O. BOX 320610, PO BOX 2489",ALEXANDRIA,VA,22320,Mortgagee,2020-01-01 0:00
687c10f5e7e9fed8c4bd8285,ACCUBANC MORTGAGE ISAOA/ATIM CORPORATION A,,,,,,,PO Box 809048,Dallas,TX,75380-9048,Mortgagee,2020-01-01 0:00
687c10f5e7e9fed8c4bd8290,AMARILLO NATIONAL BANK,,,,,,,PO BOX 1 PLAZA ONE,AMARILLO,TX,79105,Mortgagee,2020-01-01 0:00
687c10f5e7e9fed8c4bd8291,AMCAP MORTGAGE LTD,ISAOA/ATIMA,,,713-586-0510,,,9999 Bellaire Blvd #700,Houston,TX,77036,Mortgagee,2020-01-01 0:00
687c10f5e7e9fed8c4bd8298,AMERICAN FINANCIAL NETWORK INC,,,,,714-831-4578,,10 POINTE DR STE 330,BREA,CA,92821,Mortgagee,2020-01-01 0:00
687c10f5e7e9fed8c4bd82a1,AMERICAS WHOLESALE LENDER (COUNTRYWIDE),ISAOA/ATIMA,,,,,,PO Box 10212 MSN-SV22,Van Nuys,CA,91410-0212,Mortgagee,2020-01-01 0:00
687c10f5e7e9fed8c4bd82ac,AMWEST FUNDING CORP,ISAOA / ATIMA,docs@borrowercoverage.com,https://www.myinsuranceinfo.com/,877-585-8153,1-800-653-8812,,PO BOX 5538,NORWELL,MA,2061,https://www.amwestfunding.com/Loan-Servicing,2025-08-027 0:00
687c10f5e7e9fed8c4bd82d0,BARKSDALE FEDERAL CREDIT UNION,,MortgageServicing@bfcu.org,,,,,,,,,Mortgagee,2020-01-01 0:00
687c10f5e7e9fed8c4bd82e1,BOKF NA DBA BANK OF OKLAHOMA,ISAOA,,,937-525-3351,800-947-7061,,PO Box 1550,Springfield,OH,45501-1550,Mortgagee,2020-01-01 0:00
687c10f5e7e9fed8c4bd82e6,BROKER SOLUTIONS INC,,,,,,,PO BOX 3080,EVERETT,WA,98213,Mortgagee,2020-01-01 0:00
687c10f5e7e9fed8c4bd82eb,CA,ISAOA / ATIMA,,,904-732-7785,,,P.O. BOX 23016,JACKSONVILLE,FL,32241-3019,,2020-01-01 0:00
687c10f5e7e9fed8c4bd82ed,CADENCE BANK ,ISAOA ATIMA,cadencenr@tmhighland.com,,,877-894-3178,,PO BOX 703308,Dalas,TX,75370,Mortgagee Insurance Department: 877-894-3178 - cadencenr@tmhighland.com - updated 5/6/2025,2020-01-01 0:00
687c10f5e7e9fed8c4bd82fc,CASTLE BANK NA,ISAOA,,,815-786-2645,815-786-8461,,100 N Church St,Sandwich,IL,60548,Mortgagee,2020-01-01 0:00
687c10f5e7e9fed8c4bd831b,CITIFINANCIAL SERVICES INC.,,,,,877-988-9676,,8036 Brooklyn Blvd,Brooklyn Park,MN,55445,Mortgagee,2020-01-01 0:00
687c10f5e7e9fed8c4bd8326,CITY FIRST MORTGAGE CORPORATION,ISAOA / ATIMA,,,,954-967-6600,,"6100 HOLLEYWOOD BLVD., SUITE 305",HOLLYWOOD,FL,33024,,2020-01-01 0:00
687c10f5e7e9fed8c4bd8345,DADE COUNTY FEDERAL CREDIT UNION,ISAOA,,,305-412-0080,305-597-0202,,1500 NW. 107TH AVE.,MIAMI,FL,33172,,2020-01-01 0:00
687c10f5e7e9fed8c4bd834b,DITECH FINANCIAL LLC,ISAOA,pio@assurant.com,,866-263-8962,800-869-4002,,PO Box 979282,Miami,FL,33197-9282,Mortgagee,2020-01-01 0:00
687c10f5e7e9fed8c4bd834f,DOW,,,,979-238-8393,979-238-8387,,,,,,Mortgagee,2020-01-01 0:00
687c10f5e7e9fed8c4bd836b,FEMBI,ISAOA / ATIMA,,https://mycoverageinfo.com/agent,404-424-0607,866-865-3400,,"3350 PEACHTREE ROAD NE, SUITE 1000",ATLANTA,GA,30326,,2020-01-01 0:00
687c10f5e7e9fed8c4bd8382,FIRST MAGNUS CORPORATION AN ARIZONA CORP,ISAOA/ATIMA,,,,866-705-5100,,"5285 E. Williams Circle, Suite 2000",Tusczon,AZ,85711,Mortgagee,2020-01-01 0:00
687c10f5e7e9fed8c4bd8391,FIRSTBANK,,,,,,,PO BOX 151515,LAKEWOOD,CO,80215,Mortgagee,2020-01-01 0:00
687c10f5e7e9fed8c4bd83ae,GRANITE CREDIT UNTION,"3675 S 900 ESalt Lake City, UT 84106-1964",insurance@granite.org,,,801-288-3001,,801-288-3000,,,,Loss Payee,2020-01-01 0:00
687c10f5e7e9fed8c4bd83b4,GREENLIGHT FINANCIAL SERVICES,ISAOA,,,707-547-7081,855-281-7800,,P.O. BOX 5914,SANTA ROSA,CA,95402,,2020-01-01 0:00
687c10f5e7e9fed8c4bd83da,IBM SOUTHEAST E.F.C.U.,ISAOA / ATIMA,,,561-989-3066,561-982-4700,,1000 N.W. 17TH AVE.,DELRAY BEACH,FL,33445,,2020-01-01 0:00
687c10f5e7e9fed8c4bd83f7,LENDER BUSINESS PROCESS SERVICES,ISAOA,,,949-465-7550,866-745-9798,,P.O. BOX 57048,IRVINE,CA,92619-7048,,2020-01-01 0:00
687c10f5e7e9fed8c4bd840a,MAVERICK FUNDING CORP. C/O CENLAR,ISAOA / ATIMA,,,609-718-5273,877-420-4538,,P.O. BOX 202028,FLORENCE,SC,29502-2028,,2020-01-01 0:00
687c10f5e7e9fed8c4bd840e,MEMBERS COOPERATIVE CREDIT UNION,"215 N 40th Ave WDuluth, MN 55807",,,,,,,,,,Loss Payee,2020-01-01 0:00
687c10f5e7e9fed8c4bd8427,MORTGAGE NETWORK,ISAOA/ATIMA,,,,,,99 Rosewood Drive,Danvers,MA,1923,Mortgagee,2020-01-01 0:00
687c10f5e7e9fed8c4bd8432,NATIONAL CITY MORTGAGE,ISAOA/ATIMA,,,,,,PO Box 1024,Dayton,OH,45401,Mortgagee,2020-01-01 0:00
687c10f5e7e9fed8c4bd8453,"NTFN, INC. ISAOA / ATIMA D/B/A PREMIER",NATIONWIDE LENDING,,,,,,2001 LAKESIDE PARKWAY,FLOWER MOUND,TX,75028,Conventional and USDA loans,2020-01-01 0:00
687c10f5e7e9fed8c4bd8457,OCWEN LOAN SERVICING LLC,ISAOA/ATIMA,,,866-807-1814,866-825-9265,,PO Box 6723,Springfield,OH,45501-6723,Mortgagee,2020-01-01 0:00
687c10f5e7e9fed8c4bd8297,AMERICAN FINANCIAL NETWORK,,,,,714-831-4578,,,,,,Mortgagee,2020-01-01 0:00
687c10f5e7e9fed8c4bd8299,AMERICAN HERITAGE BANK,ISAOA,,,,918-224-3210,,PO Box 1408,Sapulpa,OK,74067-1408,Mortgagee,2020-01-01 0:00
687c10f5e7e9fed8c4bd829b,AMERICAN HONDA FINANCE CORP,"PO Box 650200Hunt Valley, MD 21065-0200",,,,,,,,,,Loss Payee,2020-01-01 0:00
687c10f5e7e9fed8c4bd82ad,ANCHOR MORTGAGE CORP,ISAOA,,,773-772-5002,773-772-5000,,1070 N Milwaukee Ave,Chicago,IL,60622,Mortgagee,2020-01-01 0:00
687c10f5e7e9fed8c4bd82b6,"ASSURANCE FINANCIAL GROUP, LLC",ISAOA,,,855-640-4865,866-242-7514,,PO BOX 961292,Fort Worth,TX,76161-0292,Mortgagee,2020-01-01 0:00
687c10f5e7e9fed8c4bd82ff,CENDANT MORTGAGE,,,,,888-882-1855,,,,,,Mortgagee,2020-01-01 0:00
687c10f5e7e9fed8c4bd8304,CENTRAL LOAN ADMINISTRATION AND REPORTING,ISAOA / ATIMA,,,843-413-7133,800-223-6527,,P.O. BOX 202028,FLORENCE,SC,29502-2028,Also abreviated as CENLAR,2020-01-01 0:00
687c10f5e7e9fed8c4bd8329,CITY SAVINGS BANK,,marlene.manuel@citysavingsbank.com,,,,,,,,,Mortgagee,2020-01-01 0:00
687c10f5e7e9fed8c4bd8331,COLORADO HOUSING & FINANCE AUTH,,,,,,,PO BOX 961292,FT WORTH,TX,76161,Mortgagee,2020-01-01 0:00
687c10f5e7e9fed8c4bd8361,EVERBANK FSA,,,,,,,PO BOX 620138,DORAVILLE,GA,30362,Mortgagee,2020-01-01 0:00
687c10f5e7e9fed8c4bd8383,FIRST MORTGAGE COMPANY LLC,,,,909-391-8287,800-395-4778,,6800 BROADWAY EXT,OKLAHOMA CITY,OK,73116,Mortgagee,2020-01-01 0:00
687c10f5e7e9fed8c4bd839a,FORD MOTOR CREDIT,"PO Box 390910Minneapolis, MN 55439",,,,,,,,,,"Loss Payee - Theabove is for loans.for leases: PO Box 390858; Minneapolis, MN 55439",2020-01-01 0:00
687c10f5e7e9fed8c4bd83a0,GATEWAY MORTGAGE GROUP,,insurance@gatewayloan.com,,918-858-6801,877-764-9319,,244 South Gateway Place,Jenks,OK,74037,Mortgagee,2020-01-01 0:00
687c10f5e7e9fed8c4bd83a3,GENWORTH FINANCIAL HOME EQUITY LOANS,ISAOA,,,866-745-9931,800-218-1415,,P.O. BOX 39218,SOLON,OH,44139-0218,,2020-01-01 0:00
687c10f5e7e9fed8c4bd83ad,"GRAND BANK, N.A.",ISAOA,,,949-465-7253,866-242-7514,,P.O. BOX 57046,IRVINE,CA,92619-7046,,2020-01-01 0:00
687c10f5e7e9fed8c4bd83b5,"GREENPOINT MORTGAGE FUNDING, INC.",ISAOA/ATIMA,,,,800-784-5566,,P.O. Box 80747,Atlanta,GA,30366,Mortgagee,2020-01-01 0:00
687c10f5e7e9fed8c4bd83c9,HOMEBRIDGE FINANCIAL SERVICES INC,ISAOA/ATIMA,,,843-413-7133,866-913-2951,,PO BOX 7047,Troy,MI,48007-7047,Mortgagee,2020-01-01 0:00
687c10f5e7e9fed8c4bd83d0,HOMEWARD RESIDENTIAL,ISAOA,,,949-465-7265,800-278-9939,,P.O. BOX 949,ORANGE,CA,92856-6949,"Formerly known as American Home Mortgage Servicing, Inc.",2020-01-01 0:00
687c10f5e7e9fed8c4bd83eb,JD BANK,,jana.duque@jdbank.com-send,,,,,PO BOX 1503,Lake Charles,LA,70602,Mortgagee,2020-01-01 0:00
687c10f5e7e9fed8c4bd83f4,LAND HOME FINANCIAL SERVICES INC,,,,,,,PO BOX 961292,FT WORTH,TX,76161,Mortgagee,2020-01-01 0:00
687c10f5e7e9fed8c4bd83f8,LENDER LIVE NETWORK INC,,,,877-933-8478,877-516-8118,,PO BOX 692428,SAN ANTONIO,TX,78269,Mortgagee,2020-01-01 0:00
687c10f5e7e9fed8c4bd8410,MERCEDES BENZ CREDIT,"PO Box 685Roanoke, TX 76262",,,,,,,,,,Loss Payee,2020-01-01 0:00
687c10f5e7e9fed8c4bd8417,MID AMERICAN MORTGAGE,ISAOA/ATIMA,,,,866-544-7013,,Po Box 202049,Florence,Sc,29502,Mortgagee,2020-01-01 0:00
687c10f5e7e9fed8c4bd841d,MIDWEST LOAN SERVIES,,escrow@midwestloanservices.com,,906-483-4385,800-262-6574,,"PO BOX 39159 SOLON, OH 44139",escrow@midwestloanservices.com,,,Mortgagee,2020-01-01 0:00
687c10f5e7e9fed8c4bd8423,MORGAN STANLEY PRIVATE BANK NA,ISAOA/ATIMA,,,,,,PO Box 5954,Springfield,OH,45501-5954,Also known as Morgan Stanley Home LoansMortgagee,2020-01-01 0:00
687c10f5e7e9fed8c4bd8434,NATIONS DIRECT MORTGAGE,,,,,866-242-7514,,PO BOX 961292,FT WORTH,TX,76161,Mortgagee,2020-01-01 0:00
687c10f5e7e9fed8c4bd843e,NET BANK (RBMG),,,,,800-406-1318,,PO Box 2975,Coraopolis,PA,15108,Mortgagee,2020-01-01 0:00
687c10f5e7e9fed8c4bd8449,NISSAN MOTOR ACCEPTANCE CORP,"PO Box 390888Minneapolis, MN 55439-0888",,,,,,,,,,Loss Payee,2020-01-01 0:00
687c10f5e7e9fed8c4bd844d,NORTHWOODS CREDIT UNION,"PO Box 190Cloquet, MN 55720",,,,,,,,,,Loss Payee,2020-01-01 0:00
687c10f5e7e9fed8c4bd8455,"NYCB MORTGAGE COMPANY, LLC",ISAOA,,,937-525-8799,888-455-7288,,P.O. BOX 8326,SPRINGFIELD,OH,45501,,2020-01-01 0:00
687c10f5e7e9fed8c4bd845f,OPTION ONE MORTGAGE CORP.,ISAOA/ATIMA,,,,,,P.O. Box 949,Orange,CA,92856,Mortgagee,2020-01-01 0:00
687c10f5e7e9fed8c4bd8464,PARAMOUNT RESIDENTIAL MORTGAGE GROUP,ISAOA,,https://www.mycoverageinfo.com/agent,843-413-7133,855-622-3194,,"1265 CORONA POINTE COURT, SUITE 301",CORONA,CA,92879,,2020-01-01 0:00
687c10f5e7e9fed8c4bd828a,AIM LOAN.COM,,,,,,,PO BOX 961292,FT WORTH,TX,76161,Mortgagee,2020-01-01 0:00
687c10f5e7e9fed8c4bd82bd,AXOS BANK,ISAOA,,,,,,PO Box 401420,Las Vegas,NV,89140,Mortgagee,2020-01-01 0:00
687c10f5e7e9fed8c4bd82d4,"BAYVIEW LOAN SERVICING, LLC",ISAOA,,,248-824-7960,877-826-4419,,P.O. BOX 5933,TROY,MI,48007-5933,,2020-01-01 0:00
687c10f5e7e9fed8c4bd82e7,"BROKER SOLUTIONS, INC.",ISAOA/ATIMA,,,,833-739-5819,,PO Box 5071,Troy,MI,48007-5071,Mortgagee,2020-01-01 0:00
687c10f5e7e9fed8c4bd82f9,CARDINAL FINANCIAL CO LP,,,,855-640-4865,866-242-7514,,PO BOX 961292,FT WORTH,TX,76161,Mortgagee,2020-01-01 0:00
687c10f5e7e9fed8c4bd82fb,"CARRINGTON MORTGAGE SERVICES, LLC",ISAOA / ATIMA,,https://carrington.imcovered.com/,(866) 493-1441,(866) 735-4867,,P.O. BOX 692408,SAN ANTONIO,TX,78269,https://www.carringtonmortgage.com/contact-us\nPlease include your loan number on all pages of correspondence.,2020-01-01 0:00
687c10f5e7e9fed8c4bd8316,CITADEL MORTGAGE,ISAOA/ATIMA,,https://ihaveinsurance.com/citadelservicing,949-771-1683,888-800-7661,,PO Box 29411,Phoenix,AZ,92618-2829,Mortgagee,2020-01-01 0:00
687c10f5e7e9fed8c4bd831d,CITIZENS AUTO FINANCE,"PO Box 255587Sacramento, CA 95865-5587",,,,,,,,,,Loss Payee,2020-01-01 0:00
687c10f5e7e9fed8c4bd8327,CITY NATIONAL BANK OF FLORIDA,ISAOA,,,855-640-4865,833-241-2603,,P.O. BOX 961292,FORT WORTH,TX,76161-0292,,2020-01-01 0:00
687c10f5e7e9fed8c4bd834a,DIRECT MORTGAGE CORPORATION,ISAOA,,,801-924-7770,801-924-2300,,"6955 SOUTH UNION PARK CENTER, SUITE 540",SALT LAKE CITY,UT,84047,,2020-01-01 0:00
687c10f5e7e9fed8c4bd8356,"EMBRACE HOME LOANS, INC.",,hMendonsa@embracehomeloans.com,,,800-333-3004,,,,,,Mortgagee,2020-01-01 0:00
687c10f5e7e9fed8c4bd835f,ESSEX MORTGAGE,ISAOA / ATIMA,,https://expressinsuranceinfo.com/3144268,947.622.1091,855.919.6490,,P.O. Box 391313,Solon,OH,44139-8313,https://www.essexmortgage.com/servicing-contact-us,2020-01-01 0:00
687c10f5e7e9fed8c4bd8386,FIRST NATIONAL BANK OF DERIDDER,,,,,,,PO BOX 700,Deridder,LA,70634,Mortgagee,2020-01-01 0:00
687c10f5e7e9fed8c4bd838f,FIRST TENNESSEE BANK,ISAOA / ATIMA,,,713-682-1648,800-609-2109,,P.O. BOX 5954,SPRINGFIELD,OH,45501,,2020-01-01 0:00
687c10f5e7e9fed8c4bd839e,FREMONT BANK,,,,,,,PO BOX 7295,FREMONT,CA,94537,Mortgagee,2020-01-01 0:00
687c10f5e7e9fed8c4bd83a4,GLADES COUNTY SHIP,ISAOA / ATIMA,,,,,,P.O. BOX 1527,MOORE HAVEN,FL,33471,,2020-01-01 0:00
687c10f5e7e9fed8c4bd83a5,GM FINANCIAL,"PO Box 1617Minneapolis, MN 55440-1617",,,,,,,,,,Loss Payee,2020-01-01 0:00
687c10f5e7e9fed8c4bd83aa,GOLDENWEST CREDIT UNION,"PO Box 1111Ogden, UT 84402-1111",,,,801-337-8389,,,,,,Loss Payee,2020-01-01 0:00
687c10f5e7e9fed8c4bd83b3,"GREEN TREE SERVICING, LLC",ISAOA,,,866-263-8962,800-643-0202,,P.O. BOX 979282,MIAMI,FL,33197-9282,,2020-01-01 0:00
687c10f5e7e9fed8c4bd83b8,GROW FINANCIAL FEDERAL CREDIT UNION C/O CENLAR,ISAOA / ATIMA,,,843-413-7133,813-837-2451,,P.O. BOX 202028,FLORENCE,SC,29502-2028,,2020-01-01 0:00
687c10f5e7e9fed8c4bd83e8,JAGUAR CREDIT,"PO Box 390910Minneapolis, MN 55439",,,,,,,,,,Loss Payee,2020-01-01 0:00
687c10f5e7e9fed8c4bd83fd,LIVE WELL FINANCIAL INC,,,,,,,PO BOX 39457,SOLON,OH,44139,Mortgagee,2020-01-01 0:00
687c10f5e7e9fed8c4bd8402,LOANDEPOT.COM LLC (NEW JERSEY),ISAOA / ATIMA,,https://www.mycoverageinfo.com/agent,(843) 413-7133,,,P.O. Box 202028,Florence,SC,29502-2028,https://www.loandepot.com/about/loan-servicing,2020-01-01 0:00
687c10f5e7e9fed8c4bd8409,MARTIN FEDERAL CREDIT UNION,,,,407-210-1894,407-857-6328,,1727 ORLANDO CENTRAL PARKWAY,ORLANDO,FL,32809,,2020-01-01 0:00
687c10f5e7e9fed8c4bd8418,MID FIRST MIDLAND MORTGAGE,,,,,,,PO BOX 163529,Fort Worth,,,Mortgagee,2020-01-01 0:00
687c10f5e7e9fed8c4bd8421,MIT LENDING,ISAOA/ATIMA,,,,,,"33 Maiden Lane, 6th Floor",New York,NY,10038,Mortgagee,2020-01-01 0:00
687c10f5e7e9fed8c4bd8443,NEW ENGLAND FEDERAL CREDIT UNION,ISAOA/ATIMA,,,802- 7656556,866-805-6267,,PO Box 527,Williston,VT,05495-0527,Mortgagee,2020-01-01 0:00
687c10f5e7e9fed8c4bd845c,ONE MAIN FINANCIAL,,,,954-351-2460,954-351-2454,,6517 N. ANDREWS AVE.,FT. LAUDERDALE,FL,33309,,2020-01-01 0:00
687c10f5e7e9fed8c4bd8460,ORIGIN BANK,ISAOA/ATIMA,,,888-864-8253,888-402-3931,,PO Box 390127,Minneapolis,MN,55439,Mortgagee,2020-01-01 0:00
687c10f5e7e9fed8c4bd827d,"1ST ALLIANCE LENDING, LLC C/O LOAN CARE",ISAOA / ATIMA,,,843-413-7127,866-822-0890,,P.O. BOX 202049,FLORENCE,SC,,,2020-01-01 0:00
687c10f5e7e9fed8c4bd8292,AMEGY BANK,,,,843-413-7133,855-501-3036,,,,,,Mortgagee,2020-01-01 0:00
687c10f5e7e9fed8c4bd8296,AMERICAN AIRLINES FEDERAL CREDIT UNION,ISAOA,,,866-570-0798,800-533-0035,,P.O. BOX 20033,KENNESAW,GA,30156-9254,FAX TO ATTENTION: MORTGAGE SERVICING,2020-01-01 0:00
687c10f5e7e9fed8c4bd829d,AMERICAN MORTGAGE LLC,ISAOA,,,815-787-2380,815-787-2360,,913 S 4th St Suite 102,DeKalb,IL,60115,Mortgagee,2020-01-01 0:00
687c10f5e7e9fed8c4bd82a4,AMERIHOME MORTGAGE COMPANY LLC,ISAOA/ATIMA,insurancedepartment@ihaveinsurance.com,https://www.ihaveinsurance.com/amerihomeservicing,843-413-7133,833-811-3064,,P.O. Box 29411,Phoenix,AZ,85038-9411,,2026-01-08 12:35
687c10f5e7e9fed8c4bd82aa,AMERITRUST MORTGAGE CORP,ISAOA,,,,815-459-7303,,284 Virginia St,Crystal Lake,IL,60014,Mortgagee,2020-01-01 0:00
687c10f5e7e9fed8c4bd82b2,ARK-LA-TEX FINANCIAL SERVICES,,,,844-890-7206,800-366-2132,,,,,,Mortgagee,2020-01-01 0:00
687c10f5e7e9fed8c4bd82c1,BANCORPSOUTH,"ISAOA, ATIMA",insdocs8148@oscis.com,,866-735-7158,888-797-7711,,PO BOX 200057,KENNESAW,GA,30156-9246,Mortgagee,2020-01-01 0:00
687c10f5e7e9fed8c4bd82c2,BANK FORWARD,,,,,,,400 2nd Ave SW,Jamestown,ND,58401,Mortgagee,2020-01-01 0:00
687c10f5e7e9fed8c4bd82c4,BANK OF AMERICA NA,ISAOA/ATIMA,,,800-293-8158,800-669-6607,,PO Box 961291,Ft Worth,TX,76161-0291,Mortgagee,2020-01-01 0:00
687c10f5e7e9fed8c4bd82c5,"BANK OF AMERICA, N.A.",ISAOA / ATIMA,,https://www.mycoverageinfo.com/agent,800-293-8158,866-265-3321,,P.O. BOX 961291,FORT WORTH,TX,76161-0291,USE FOR FIRST AND SECOND MORTGAGE,2020-01-01 0:00
687c10f5e7e9fed8c4bd82c6,"BANK OF AMERICA, NA #133",ISAOA/ATIMA,,,,,,P.O. Box 2325,Corapolis,PA,15108-6924,Mortgagee,2020-01-01 0:00
687c10f5e7e9fed8c4bd82cb,"BANK OF OKLAHOMA, N.A.",ISAOA / ATIMA,,,248-269-5522,888-884-5319,,P.O. BOX 7000,TROY,MI,48007-7000,USE FOR FIRST AND SECOND MORTGAGES,2020-01-01 0:00
687c10f5e7e9fed8c4bd82d2,BAY EQUITY HOME LOANS,,,,,,,PO BOX 202028,FLORENCE,SC,29502,Mortgagee,2020-01-01 0:00
687c10f5e7e9fed8c4bd82e2,BRADESCO BAC FLORIDA BANK,ISAOA,insurancedocs@ihaveinsurance.com,,,833-241-2603,,PO BOX 961292,FORT WORTH,TX,76161-0292,,2020-01-01 0:00
687c10f5e7e9fed8c4bd8302,CENTEX HOME EQUITY CORPORATION,ISAOA/ATIMA,,,,,,"185 Plains Road, Suite 301W",Milford,CT,06461-2474,Mortgagee,2020-01-01 0:00
687c10f5e7e9fed8c4bd8318,CITI FINANCIAL AUTO,"PO Box 3050Coraopolis, PA 15108",,,,,,,,,,Loss Payee,2020-01-01 0:00
687c10f5e7e9fed8c4bd831f,CITIZENS COMMUNITY FEDERAL NATIONAL ASSOCIATION,ISAOA / ATIMA,customerservicecenter@ccf.us,,,800-590-9920,,PO Box 390571,Minneapolis,MN,55439-0571,Mortgagee,2025-07-03 0:00
687c10f5e7e9fed8c4bd8323,CITIZENS ONE HOME LOANS,,,,,,,PO BOX 202060,FLORENCE,SC,29502,Mortgagee,2020-01-01 0:00
687c10f5e7e9fed8c4bd832f,COLDWELL BANKER MORTGAGE,ISAOA,,,937-525-4210,888-882-1855,877-634-5676,P.O. BOX 5954,SPRINGFIELD,OH,45501-5954,,2020-01-01 0:00
687c10f5e7e9fed8c4bd8333,COMERICA BANK,ISAOA,,,,,,P.O. BOX 5954,SPRINGFIELD,OH,45501-5954,,2020-01-01 0:00
687c10f5e7e9fed8c4bd8340,"CROSSCOUNTRY MORTGAGE ,LLC ",Its Successors and/or Assigns,,https://mycoverageinfo.com/agent,877-773-1226,(800) 310-9884,,P.O. Box 7729,Springfield,OH,45501-7729,Mortgagee <br>https://mycoverageinfo.com/crosscountry/policy-manager/contact-us,2020-01-01 0:00
687c10f5e7e9fed8c4bd834e,DOVENMUEHLEM MORTGAGE INC.,ISAOA,,,949-465-7253,866-242-7514,,P.O. BOX 57046,IRVINE,CA,92619-7046,,2020-01-01 0:00
687c10f5e7e9fed8c4bd8353,EAST WEST BANK,,,,,,,PO BOX 60020,CITY INDUSTRY,CA,91716,Mortgagee,2020-01-01 0:00
687c10f5e7e9fed8c4bd8368,FAY SERVICING,ISAOA ATIMA,,https://expressinsuranceinfo.com/3143841,248-781-9345,888-675-5939,,PO BOX 7047,Troy,MI,48007,Mortgagee - https://www.fayservicing.com/new-to-fay,2025-10-28 16:41
687c10f5e7e9fed8c4bd836e,FIFTH THIRD BANCORP,"ISAOA / ATIMA, ISAOA/ATIMA",,https://www.expressinsuranceinfo.com/3142240,855-473-0204,866-366-4282,855-388-9260,"P.O. BOX 598, PO Box 598",AMELIA,OH,45102,Mortgagee,2020-01-01 0:00
687c10f5e7e9fed8c4bd838b,FIRST REPUBLIC BANK,,,,,,,PO BOX 790869,SAN ANTONIO,TX,78279,Mortgagee,2020-01-01 0:00
687c10f5e7e9fed8c4bd8390,FIRST UNITED BANK AND TRUST,,,,580-916-3667,877-561-0922,,PO BOX 1486,DURANT,OK,74702,Mortgagee,2020-01-01 0:00
687c10f5e7e9fed8c4bd8396,FLORIDA COMMERCE CREDIT UNION,,,,877-573-8970,877-905-4174,,P.O. BOX 6416,TALLAHASSEE,FL,32314,,2020-01-01 0:00
687c10f5e7e9fed8c4bd8397,FLORIDA CREDIT UNION,ISAOA / ATIMA,,,352-381-3594,800-284-1144,,P.O. BOX 5549,GAINSVILLE,FL,32627,,2020-01-01 0:00
687c10f5e7e9fed8c4bd83ab,GOLDWATER BANK,,insurance@westloan.com,,,844-799-4653,,,,,,Mortgagee,2020-01-01 0:00
687c10f5e7e9fed8c4bd83af,GREATER NEW ORLEANS FEDERAL CREDIT UNION,,,,,,,3105 Lime St,Metairie,LA,70006,Mortgagee,2020-01-01 0:00
687c10f5e7e9fed8c4bd83c0,HANCOCK WHITNEY BANK,Attention: Escrow Insurance Department MS 1180,,,855-640-4865,866-242-7514,,PO BOX 961292,Fort Worth,TX,76161-0292,Mortgagee,2020-01-01 0:00
687c10f5e7e9fed8c4bd83c1,HAPO COMMUNITY CU,"PO Box 924399Frt Worth, TX 76124-4399",,,,,,,,,,Loss Payee,2020-01-01 0:00
687c10f5e7e9fed8c4bd83c3,HFC,ISAOA,,,678-475-8788,800-837-4840,,P.O. BOX 48200,DORAVILLE,GA,30362,,2020-01-01 0:00
687c10f5e7e9fed8c4bd83cf,HOMEVEST MORTGAGE CORPORATION,ISAOA/ATIMA,,,,,,188 Needham Street,Newton,MA,2464,Mortgagee,2020-01-01 0:00
687c10f5e7e9fed8c4bd83de,IMPAC MORTGAGE CORP C/O LOAN,,,,,,,PO BOX 202049,FLORENCE,SC,29502,Mortgagee,2020-01-01 0:00
687c10f5e7e9fed8c4bd83ef,KEYBANK NATIONAL ASSOCIATION ,ISAOA,insdocs8233@oscis.com,,,216-813-1267,,PO BOX 1868,KENNESAW,GA,30156,Mortgagee - Enviar Flood Dec Pages a flood@keybank.com or fax 877-379-1625.,2020-01-01 0:00
687c10f5e7e9fed8c4bd83f1,KINECTA FEDERAL CREDIT UNION,,,,,,,PO BOX 961292,FT WORTH,TX,76161,Mortgagee,2020-01-01 0:00
687c10f5e7e9fed8c4bd83f2,LAKESIDE BANK,,,,,,,,,,,Mortgagee,2020-01-01 0:00
687c10f5e7e9fed8c4bd8400,LOANDEPOT.COM LLC,ISAOA / ATIMA,,https://expressinsuranceinfo.com/2917832,(248) 710-1660,(877) 477-2089,,PO Box 7114,Troy,MI,48007-7114,https://www.loandepot.com/about/loan-servicing,2020-01-01 0:00
687c10f5e7e9fed8c4bd840d,MEMBER HOME LOAN,,,,832-237-0081,832-912-2151,,,,,,Mortgagee,2020-01-01 0:00
687c10f5e7e9fed8c4bd8420,MINNESOTA CHIPPEWA TRIBE FINANCE CORP,,,,,218-335-8582,,15542 State HWY 371 NW,Cass Lake,MN,56633,Mortgagee,2020-01-01 0:00
687c10f5e7e9fed8c4bd843a,NAVY FEDERAL CREDIT UNION,"ISAOA, PO Box 3000Merrifield, VA 22119, ISAOA",,https://mycoverageinfo.com/agent/,703-206-3865,888-842-6328,800-368-3657,"P.O. BOX 100598, PO Box 100598",FLORENCE,SC,29502-0598,"Loss Payee, Mortgagee",2020-01-01 0:00
687c10f5e7e9fed8c4bd8448,NFCU &/OR SEC OF VET AFFAIRS,ISAOA/ATIMA,,,,800-368-3657,,PO Box 100598,,,,Mortgagee,2020-01-01 0:00
687c10f5e7e9fed8c4bd8451,NTFN-PREMIER,,,,,800-508-4495,,,,,,Mortgagee,2020-01-01 0:00
687c10f5e7e9fed8c4bd8456,OCEANSIDE MORTGAGE COMPANY,ISAOA/ATIMA,,,937-525-8897,877-521-0263,,PO BOX 1194,Springfield,,,Mortgagee,2020-01-01 0:00
687c10f5e7e9fed8c4bd8459,"OHIO SAVINGS BANK PRINCIPAL RESIDENTIAL MORTGAGE, INC.",ISAOA/ATIMA,,,,,,P.O. Box 305309,Nashville,TN,37320,Mortgagee,2020-01-01 0:00
687c10f5e7e9fed8c4bd8468,PEDESTAL BANK,,ann.leger@pedestal.bank,,,460-275- Ann,,PO Box 4177,Houma,LA,70361,Mortgagee,2020-01-01 0:00
687c10f5e7e9fed8c4bd8289,AFFINITY PLUS FEDERAL CREDIT UNION,"Its Successors and/or Assigns, ATIMA, PO Box 924247Fort Worth, TX 76124",affinityplus@myloaninsurance.com,https://www.myloaninsurance.com/affinityplus,877-331-2649,800-322-7228,877-331-2649,"PO Box 924247, 888-245-2044",Fort Worth,Texas,76124,"Mortgagee, Loss Payee",2020-01-01 0:00
687c10f5e7e9fed8c4bd828d,ALLY FINANCIAL,"PO Box 8143Cockeysville, MD 21030",,,,,,,,,,Loss Payee,2020-01-01 0:00
687c10f5e7e9fed8c4bd8293,AMERICA FIRST CU,"PO Box 924260Ft Worth, TX 76124-4260",insurance@americafirst.com,,801-827-8459,800-999-3961,877.733.1313,"PO Box 9338, 888.565.7923",Ogden,UT,84409-0338,"Mortgagee, Loss Payee",2020-01-01 0:00
687c10f5e7e9fed8c4bd8295,AMERICAN ADVISORS GROUP,ISAOA,,,949-269-1603,866-948-0003,,"3800 W. CHAPMAN AVE., 3RD FLOOR , PO BOX 39457",ORANGE,CA,92868,Mortgagee,2020-01-01 0:00
687c10f5e7e9fed8c4bd82a2,AMERICREDIT FINANCIAL SERVICES,"PO Box 1617Minneapolis, MN 55440-1617",,,,,,,,,,Loss Payee,2020-01-01 0:00
687c10f5e7e9fed8c4bd82b4,ASC (AMERICA'S SERVICING CO.),,,,937-525-4100,866-310-1387,,,,,,Mortgagee,2020-01-01 0:00
687c10f5e7e9fed8c4bd82b5,"ASSOCIATED BANK, NA",ISAOA/ATIMA,,,,,,PO Box 327,Stevens Point,WI,54481,Mortgagee,2020-01-01 0:00
687c10f5e7e9fed8c4bd82b7,ASTORIA FEDERAL MORTGAGE CORP.,ISAOA,,,516-535-8103,800-430-9944,,PO Box 290756,Nashville,TN,37229-0759,Mortgagee,2020-01-01 0:00
687c10f5e7e9fed8c4bd82cd,"BANK UNITED, FSB",ISAOA / ATIMA,,,866-734-8163,800-684-1855,866-731-3454,P.O. BOX 5940 TROY,TROY,MI,48007-5940,,2020-01-01 0:00
687c10f5e7e9fed8c4bd82cf,BANNER BANK,,,,,,,PO BOX 907,WALLA WALLA,WA,99362,Mortgagee,2020-01-01 0:00
687c10f5e7e9fed8c4bd82f4,CAPITAL MORTGAGE SERVICES OF TEXAS,,,,806-791-5403,800-613-4408,,PO BOX 6338,LUBBOCK,TX,79413-6338,,2020-01-01 0:00
687c10f5e7e9fed8c4bd8307,CENTURY LENDING CORPORATION,ISAOA / ATIMA,,,502-753-4786,502-425-7740,,9920 CORP. CAMPUS DRIVE #3000,LOUISVILLE,KY,40223-4061,,2020-01-01 0:00
687c10f5e7e9fed8c4bd830d,CHARTWAY CREDIT UNION,,Mortgages@chartway.com,,757-499-8101,800-678-8765,,5700 Cleveland St,Virginia Beach,VA,23462,Mortgagee<br>https://www.chartway.com/help.html#phonenumbers,2020-01-01 0:00
687c10f5e7e9fed8c4bd8320,CITIZENS FIRST BANK,ISAOA,,,328-592-3239,352-259-3227,,P.O. BOX 369,THE VILLAGES,FL,32158,,2020-01-01 0:00
687c10f5e7e9fed8c4bd8321,CITIZENS FIRST WHOLESALE MORTGAGE COMPANY,ISAOA,,,352-753-4482,352-259-8089,,560 FIELDCREAST DRIVE,LADY LAKE,FL,32162,,2020-01-01 0:00
687c10f5e7e9fed8c4bd833a,COMPU-LINK CORPORATION D/B/A CELINK,ISAOA,taxandinsurance@reversedepartment.com,,440-505-2000,866-871-2412,,PO Box 39457,Solon,OH,44139-0457,https://www.hud.gov/program_offices/housing/sfh/nsc/fmaddr,2020-01-01 0:00
687c10f5e7e9fed8c4bd833f,CRESENT MORTGAGE COMPANY,,,,,800-51--263,,,,,,Mortgagee,2020-01-01 0:00
687c10f5e7e9fed8c4bd8341,"CROSSFIRE FINANCIAL NETWORK, INC.",ISAOA / ATIMA,,,888-227-3806,305-270-5522,,"9485 SUNSET DRIVE, SUITE A-225",MIAMI,FL,33173,,2020-01-01 0:00
687c10f5e7e9fed8c4bd8350,DUBUQUE BANK & TRUST COMPANY,,,,,,,PO BOX 7091,TROY,MI,48007,Mortgagee,2020-01-01 0:00
687c10f5e7e9fed8c4bd835a,ENVISION CREDIT UNION,ISAOA,,,850-942-9020,850-942-9234,,P.O. BOX 5198,TALLAHASSEE,FL,32314-5198,,2020-01-01 0:00
687c10f5e7e9fed8c4bd835b,EQUICREDIT CORP OF AMERICA,ISAOA,,,,,,PO Box 7277,Springfield,OH,45501-7277,Mortgagee,2020-01-01 0:00
687c10f5e7e9fed8c4bd8363,EVERETT FINANCIAL INC. D/B/A SUPREME LENDING,ISAOA / ATIMA,,,321-725-5556,321-725-8200,,14801 QUORUM DRIVE SUITE 300,DALLAS,TX,75254,,2020-01-01 0:00
687c10f5e7e9fed8c4bd8375,FINANCIAL ONE CREDIT UNION,"11465 Robinson Drive NW #100Coon Rapids, MN 55433",,,,800-709-4819,,,,,,Loss Payee,2020-01-01 0:00
687c10f5e7e9fed8c4bd8394,"FLAGSTAR BANK, FSB","ISAOA / ATIMA, ISAOA/ATIMA",,https://mycoverageinfo.com/flagstar,(833) 874-5370,833-811-3061,(833) 811-3061,"P.O. Box 52198, PO Box 52198",Phoenix,AZ,85072-2198,"https://www.flagstar.com/personal/mortgage-information-center/loan-servicing-faqs.html, Mortgagee",2020-01-01 0:00
687c10f5e7e9fed8c4bd83a2,GENERATION MORTGAGE COMPANY,ISAOA,,,440-337-9002,877-646-6818,,P.O. BOX 391225,SOLON,OH,44139,,2020-01-01 0:00
687c10f5e7e9fed8c4bd83b1,"GREEN PLANET SERVICING, LLC",ISAOA / ATIMA,,,203-265-3950,866-882-8187,,P.O. BOX 5023,TROY,MI,48007-5023,,2020-01-01 0:00
687c10f5e7e9fed8c4bd83bc,GUARDIAN MORTGAGE COMPANY,,,,,,,,,,,Changed Name to Sunflower Bank ,2020-01-01 0:00
687c10f5e7e9fed8c4bd83cc,HOMEPOINT FINANCIAL CORP.,ISAOA/ATIMA,,,248-878-2440,877-926-1125,,PO BOX 5107,Troy,,,Mortgagee,2020-01-01 0:00
687c10f5e7e9fed8c4bd83cd,HOMESTAR FINANCIAL CORPORATION,ISAOA ATIMA,,,,,,332 Washington Street NW,Gainesville,GA,30501,Closing company,2020-01-01 0:00
687c10f5e7e9fed8c4bd83d4,"HSBC MORTGAGE CORPORATION, USA",ISAOA,,,678-459-9142,866-473-6919,,P.O. BOX 48350,DORAVILLE,GA,30362,,2020-01-01 0:00
687c10f5e7e9fed8c4bd83d7,HYUNDAI LEASE TITLE TRUST,"PO Box 20809Fountain Valley, MN 92728",,,,,,,,,,Loss Payee,2020-01-01 0:00
687c10f5e7e9fed8c4bd8405,LONGBRIDGE FINANCIAL LLC,,https://reversedepartment.com/contact,https://www.expressinsuranceinfo.com/3142530,(440) 505-2000,(866) 871-2412,,PO Box 39457,Solon,OH,44139,REVERSE MORTGAGE SERVICING -  BC@reversedepartment.com,2020-01-01 0:00
687c10f5e7e9fed8c4bd841b,MIDLAND MORTGAGE,"ISAOA / ATIMA, ISAOA/ATIMA",midland@ihaveinsurance.com,,855-768-2910,866-439-2712,866-439-2712,"P.O. BOX 163529, PO BOX 163529",FORTH WORTH,TX,76161-3529,Mortgagee,2020-01-01 0:00
687c10f5e7e9fed8c4bd841c,MIDSOUTH BANK,,allison.robertson@midsouthbank.com,,,,,PO BOX 2126,Natchitoches,LA,71457,Mortgagee,2020-01-01 0:00
687c10f5e7e9fed8c4bd841f,"MILA, INC.",ISAOA/ATIMA,,,,,,PO Box 961206,Fort Worth,TX,76161,Mortgagee,2020-01-01 0:00
687c10f5e7e9fed8c4bd8431,MUFG UNION BANK NA,,,,,,,PO BOX 3170,EVERETT,WA,98213,Mortgagee,2020-01-01 0:00
687c10f5e7e9fed8c4bd8447,NEWREZ LLC,ISAOA/ATIMA,ya no aceptan email a InsDocs@newrez.com,https://expressinsuranceinfo.com/2919836,248-878-2370,877-491-7277,,PO BOX 7050,TROY,MI,48007,Shellpoint Mortgage Servicing Insurance Department ,2020-01-01 0:00
687c10f5e7e9fed8c4bd8452,"NTFN, INC.",ISAOA / ATIMA,,,,,,2001 LAKESIDE PARKWAY,FLOWER MOUND,TX,75028,FHA and VA loans,2020-01-01 0:00
687c10f5e7e9fed8c4bd8454,NYCB MORTGAGE,,nycbinsurance@pfic.com,,248-824-7144,888-455-7288,,,,,,Mortgagee,2020-01-01 0:00
687c10f5e7e9fed8c4bd8286,ACHIEVA CREDIT UNION,ISAOA,,,972-818-2844,877-894-3175,,P.O. BOX 2650,LARGO,FL,33779,,2020-01-01 0:00
687c10f5e7e9fed8c4bd82ae,ANDREWS CHARLES MORTGAGE COMPANY,ISAOA,,,815-972-2700,815-972-2600,,"1 Court Pl, Suite 102",Rockford,IL,61101,Mortgagee,2020-01-01 0:00
687c10f5e7e9fed8c4bd82ee,CALCASIEU PARISH EMPLOYEE FCU,,,,,,,,,,,Mortgagee,2020-01-01 0:00
687c10f5e7e9fed8c4bd8319,"CITI MORTGAGE, INC.",ISAOA,,,937-324-6577,800-442-8774,,PO Box 7706,Springfield,OH,45501,Mortgagee,2020-01-01 0:00
687c10f5e7e9fed8c4bd8328,CITY OF FT.LAUDERDALE HOUSING & COMM. DEVELOPMENT,,,,,,,700 NW 19TH AVE.,FT. LAUDERDALE,FL,33311,,2020-01-01 0:00
687c10f5e7e9fed8c4bd8334,"COMMERCIAL LENDING, LLC",ISAOA/ATIMA,,,,,,7603 Maple Branch Rd,Clifton,VA,20124,Mortgagee,2020-01-01 0:00
687c10f5e7e9fed8c4bd833b,CORNERSTONE MORTGAGE CO,ISAOA ATIMA,loaninfo@email.myloanservicer.com,https://ihaveinsurance.com/cornerstone,833-253-1132,866-861-2639,,PO Box 961254,Fort Worth,TX,76161,Mortgagee <br>https://www.houseloan.com/learn/faqs/?a=escrow-tax-insurance,2025-06-25 0:00
687c10f5e7e9fed8c4bd833d,CREDIT ACCEPTANCE CORPORATION,"25505 West Twelve Mile RoadSouthfield, MI 48034",,,,,,,,,,Loss Payee,2020-01-01 0:00
687c10f5e7e9fed8c4bd8347,DEERWOOD BANK,"PO Box 1278Bemidji, MN 56619-1278",,,,,,PO Box 2905,Baxter,MN,56425,"Loss Payee, Mortgagee",2020-01-01 0:00
687c10f5e7e9fed8c4bd8348,DESERET FIRST CREDIT UNION,"PO Box 571100Salt Lake City, UT 84157-1100",,,,,,,,,,Loss Payee,2020-01-01 0:00
687c10f5e7e9fed8c4bd8360,EVERBANK,,,,,888-492-8335,,,,,,Mortgagee,2020-01-01 0:00
687c10f5e7e9fed8c4bd8364,EVERHOME MORTGAGE,ISAOA,,,678-459-6125,888-492-8335,,PO BOX 620138,Doraville,GA,30362,Mortgagee,2020-01-01 0:00
687c10f5e7e9fed8c4bd83dd,IMORTGAGE ISAOA ATIMA,,,,,,,PO BOX 202028,FLORENCE,SC,29502,Mortgagee,2020-01-01 0:00
687c10f5e7e9fed8c4bd83e2,INSIGHT CREDIT UNION,ISAOA,,,407-426-6060,407-426-6040,,P.O. BOX 4900,ORLANDO,FL,32802-4900,,2020-01-01 0:00
687c10f5e7e9fed8c4bd83e6,INTERNATIONAL BANK OF COMMERCE,,,,956-632-3565,,,,,,,Mortgagee,2020-01-01 0:00
687c10f5e7e9fed8c4bd83ff,"LOANCARE, LLC",ISAOA / ATIMA,,https://mycoverageinfo.com/lc623/policy-manager/contact-us,,866-822-0890,,P.O. BOX 202049,FLORENCE,SC,29502-2049,,2020-01-01 0:00
687c10f5e7e9fed8c4bd8404,LONG BEACH MORTGAGE COMPANY,ISAOA,,,,,,7887 E Bellview Suite 725,Englewood,CO,80111,Mortgagee,2020-01-01 0:00
687c10f5e7e9fed8c4bd8407,M&T BANK,ISAOA,mtb@mycoverageinfo.com,https://mycoverageinfo.com/mtb,937-525-4125,888-882-1847,,PO BOX 5738,Springfield,OH,45501,Mortgagee,2020-01-01 0:00
687c10f5e7e9fed8c4bd840b,MAZDA AMERICAN CREDIT,"PO Box 390910Minneapolis, MN 55439",,,,,,,,,,"Loss Payee - Theabove is for loans. Lease : PO Box 390858; Minneapolis, MN 55439",2020-01-01 0:00
687c10f5e7e9fed8c4bd8419,MID-FLORIDA CREDIT UNION,ISAOA / ATIMA,,,863-680-1335,863-619-9100,,3008 SOUTH FLORIDA AVENUE,LAKELAND,FL,33803-4035,,2020-01-01 0:00
687c10f5e7e9fed8c4bd8433,NATIONALLINK LP,,,,,888-422-7911,,300 Corporate Center Drive Suite 300,Moon Township,PA,15108,Mortgagee,2020-01-01 0:00
687c10f5e7e9fed8c4bd8467,PATELCO CREDIT UNION,,,,,,,PO BOX 1707,CARMEL,IN,46082,Mortgagee,2020-01-01 0:00
687c10f5e7e9fed8c4bd82a6,AMERINAT,ISAOA / ATIMA,taxins@amerinatls.com,,,,,,,,,,2020-01-01 0:00
687c10f5e7e9fed8c4bd82d5,BB&T,"ISAOA / ATIMA, INSURANCE CENTER",,,937-525-8927,866-940-2464,252-296-7400,"P.O. BOX 7933, P.O. BOX 25610-C",SRINGFIELD,OH,45501-7933,"PHYSICAL ADDRESS BELOW IS TO \nINSURANCE ADMINISTRATIVE DEPARTMENT, USE FOR EQUITY LINES",2020-01-01 0:00
687c10f5e7e9fed8c4bd82de,BMO HARRIS BANK NA,ISAOA,,,,312-461-2121,,PO Box 368,Arlington Hts,IL,60006-0368,Mortgagee,2020-01-01 0:00
687c10f5e7e9fed8c4bd82e3,BRANCH BANKING AND TRUST CO.,ISAOA/ATIMA,,,937-525-8927,800-295-5744,,P.O. Box 7933,Springfield,OH,45501-7933,Also known as BB&TMortgagee,2020-01-01 0:00
687c10f5e7e9fed8c4bd82e4,BRAZOS VALLEY SCHOOLS CREDIT UNION,ISAOA,,,281-391-3027,281-391-2149,,25425 Kingsland Blvd,Katy,TX,77494,Mortgagee,2020-01-01 0:00
687c10f5e7e9fed8c4bd82fa,"CARDINAL FINANCIAL COMPANY, LP ",ISAOA ATIMA,,,847-574-7659,877-604-7294,,P.O. Box 961292,Fort Worth,TX,76161,,2020-01-01 0:00
687c10f5e7e9fed8c4bd830e,CHASE AUTO FINANCE,"PO Box 901039Fort Worth, TX 76101",,,,,,,,,,Loss Payee,2020-01-01 0:00
687c10f5e7e9fed8c4bd832e,COLDWELL BANKER HOME LOANS,,,,,,,PO BOX 5954,SPRINGFIELD,OH,45501,Mortgagee,2020-01-01 0:00
687c10f5e7e9fed8c4bd8359,ENT CREDIT UNION,,,,,,,PO BOX 15819,COLORADO SPGS,CO,80935,Mortgagee,2020-01-01 0:00
687c10f5e7e9fed8c4bd835d,ERA MORTGAGE SERVICE CENTER,ISAOA,,,856-917-8300,888-307-8006,,P.O. BOX 5954,SPRINGFIELD,OH,45501-5954,,2020-01-01 0:00
687c10f5e7e9fed8c4bd8373,FINANCIAL FREEDOM A DIV OF CIT BANK,,,,,,,PO BOX 2972,PHOENIX,AZ,85062,Mortgagee,2020-01-01 0:00
687c10f5e7e9fed8c4bd837b,FIRST CONTINENTAL MORTGAGE LTD,,,,843-413-7133,832-613-9300,,PO BOX 202028,Florence,,,Mortgagee,2020-01-01 0:00
687c10f5e7e9fed8c4bd8381,FIRST INTERSTATE BANK,,,,,,,PO BOX 40,CASPER,WY,82602,Mortgagee,2020-01-01 0:00
687c10f5e7e9fed8c4bd8385,FIRST NATIONAL BANK BEMIDJI,"PO Box 670Bemidji, MN 56619",,,,800-333-9960,,,,,,Loss Payee,2020-01-01 0:00
687c10f5e7e9fed8c4bd83b9,GTE FEDERAL CREDIT UNION C/O CENLAR,ISAOA / ATIMA,,,843-413-7133,888-871-2690,,P.O. BOX 202028,FLORENCE,SC,29502-2028,,2020-01-01 0:00
687c10f5e7e9fed8c4bd83c2,HARRIS BANK,"PO Box 660310Sacramento, CA 95866",,,,847-434-2573,,,,,,Loss Payee,2020-01-01 0:00
687c10f5e7e9fed8c4bd83df,INDYMAC BANK FSB,ISAOA,,,866-806-8177,800-343-5756,,PO Box 4045,Calamazoo,MI,49003,"Arizona : PO Box 2971; Pheonix, AZ 85062Mortgagee",2020-01-01 0:00
687c10f5e7e9fed8c4bd83e3,"INTERAMERICAN BANK, FSB",,,,3052230641,305-223-1435,,9190 Coral Way,MAIMI,FL,33,,2020-01-01 0:00
687c10f5e7e9fed8c4bd83ed,"JP MORGAN CHASE BANK, N.A.","ISAOA, ISAOA, ISAOA",,,678-475-8799,877-530-8951,,"P.O. BOX 100564, P.O. BOX 47208, P.O. BOX 47020",FLORENCE,SC,29502,Use for second mortgage,2020-01-01 0:00
687c10f5e7e9fed8c4bd83f9,LEXUS FINANCIAL,"PO Box 105386Atlanta, GA 30348",,,,,,,,,,Loss Payee,2020-01-01 0:00
687c10f5e7e9fed8c4bd8408,MACQUARIE MORTGAGES USA INC.,ISAOA/ATIMA,,,,,,PO Box 57046,Irvine,CA,92619-7046,Mortgagee,2020-01-01 0:00
687c10f5e7e9fed8c4bd8415,MIAMI POSTAL SERVICE CREDIT UNION,,,,,,,2190 NW 72 AVENUE,MIAMI,FL,33122,,2020-01-01 0:00
687c10f5e7e9fed8c4bd842e,MOVEMENT MORTGAGE,,,,,888-589-4416,,,,,,Mortgagee,2020-01-01 0:00
687c10f5e7e9fed8c4bd843c,NEBO CREDIT UNION,"730 E 300 SSpringville, UT 84663-2005",,,,801-794-3685,,801-489-3679,,,,Loss Payee,2020-01-01 0:00
687c10f5e7e9fed8c4bd8440,NEW AMERICAN FUNDING,ISAOA ATIMA,NAFTeam@pfic.com,,(248) 781-9295,(877) 826-4428,,PO BOX 5071,TROY,MI,48007,,2020-01-01 0:00
687c10f5e7e9fed8c4bd844e,NORTHWOODS HABITAT FOR HUMANITY,,,,,,,PO Box 1067,Bemidji,MN,56619-1067,Mortgagee,2020-01-01 0:00
687c10f5e7e9fed8c4bd844f,"NORWEST MORTGAGE, INC.",ISAOA/ATIMA,,,,,,PO Box 6502,Springfield,OH,5501-,Mortgagee,2020-01-01 0:00
687c10f5e7e9fed8c4bd846a,PENNSYLVANIA HOUSING FIN AGNCY,,,,,,,PO BOX 15057,HARRISBURG,PA,17105,Mortgagee,2020-01-01 0:00
687c10f5e7e9fed8c4bd829c,AMERICAN INTERNET MORTGAGE INC.,ISAOA,,,,,,P.O. BOX 57046,IRVINE,CA,92619-7046,,2020-01-01 0:00
687c10f5e7e9fed8c4bd82a5,AMERIHOME MTG CO LLC A DELAWARE,,,,,,,PO BOX 202028,FLORENCE,SC,29502,Mortgagee,2020-01-01 0:00
687c10f5e7e9fed8c4bd82d6,BBVA COMPASS BANK,ISAOA / ATIMA,,,877-892-2503,800-432-1465,800-432-1465,"P.O.BOX 200017, PO BOX 200017",KENNESAW,GA,30156-9246,Mortgagee,2020-01-01 0:00
687c10f5e7e9fed8c4bd82d9,BENEFICIAL,ISAOA,,,678-475-8788,800-837-4840,,P.O. BOX 48200,DORAVILLE,GA,30362,,2020-01-01 0:00
687c10f5e7e9fed8c4bd82db,"BERKSHIRE MORTGAGE FINANCE, LLP",ISAOA/ATIMA,,,617-556-1507,877-526-3562,,1 Beacon St 14th Floor,Boston,MA,2108,Mortgagee,2020-01-01 0:00
687c10f5e7e9fed8c4bd82dc,BI-CAP,,,,,218-751-4631,,PO Box 579,Bemidji,MN,56619,218-751-8452Mortgagee,2020-01-01 0:00
687c10f5e7e9fed8c4bd82ec,CAB EAST / CAB WEST,"PO Box 390858Minneapolis, MN 55439",,,,,,,,,,Loss Payee - Ford Leases. Both lien holders use the same .,2020-01-01 0:00
687c10f5e7e9fed8c4bd82f1,CAMPUS USA CREDIT UNION,ISAOA / ATIMA,,,,352-335-9090,,P.O. BOX 385,NEWBERRY,FL,32669,,2020-01-01 0:00
687c10f5e7e9fed8c4bd8310,CHICKASAW COMMUNITY BANK,ISAOA/ATIMA,,,,866-242-7514,,Po Box 961292,Ft. Worth,TX,76161,Mortgagee,2020-01-01 0:00
687c10f5e7e9fed8c4bd8311,CHRYSLER CAPITAL,"PO Box 3610Carmel, IN 46082",,,,,,,,,,Loss Payee,2020-01-01 0:00
687c10f5e7e9fed8c4bd8322,"CITIZENS MORTGAGE DOVENMUEHLE MORTGAGE, INC.",ISAOA/ATIMA,,,,,,PO Box 25314,Santa Ana,CA,92799-5314,Mortgagee,2020-01-01 0:00
687c10f5e7e9fed8c4bd832a,CITYWIDE HOME LOANS A UTAH CORP,,,,,,,9785 S Monroe St #200,Sandy,UT,84070,Mortgagee,2020-01-01 0:00
687c10f5e7e9fed8c4bd8330,COLONIAL SAVINGS FA,"ISAOA / ATIMA, ISAOA/Atima",,https://www.ihaveinsurance.com/COLONIALSAVINGS,1-866-233-4588,1-866-233-4588,1-866-233-4588,"PO Box 961019, PO Box 961019",FORT WORTH,TX,76161-0019,Mortgagee,2020-01-01 0:00
687c10f5e7e9fed8c4bd834d,DOVENMUEHLE MORTGAGE INC,,custserve@yourmortgageonline.com,,855-640-4865,866-242-7514,,PO Box 961292,Fort Worth,TX,76161-0292,Mortgagee,2020-01-01 0:00
687c10f5e7e9fed8c4bd8365,"EVERHOME MORTGAGE, A DIVISION OF EVERBANK",ISAOA / ATIMA,,,678-459-6125,888-492-8335,,P.O. BOX 620138,DORAVILLE,GA,30362,,2020-01-01 0:00
687c10f5e7e9fed8c4bd8392,"FIRSTKEY MORTGAGE, LLC",c/o Central Loan Administration & Reporting,,,843-413-7133,877-495-4715,,PO BOX 202028,Florence,SC,29502-2028,Mortgagee,2020-01-01 0:00
687c10f5e7e9fed8c4bd83d6,HUNTINGTON NATIONAL BANK,"PO Box 183256Columbus, OH 43218",,,,,,,,,,Loss Payee,2020-01-01 0:00
687c10f5e7e9fed8c4bd83db,IDAHO CENTRAL CREDIT UNION,,,,,,,PO BOX 2469,POCATELLO,ID,83206,Mortgagee,2020-01-01 0:00
687c10f5e7e9fed8c4bd83e0,INDYMAC FEDERAL BANK,Its Successors and/or Assigns,,,,800-343-5756,,PO Box 2971,Phoenix,AZ,85062-2971,Mortgagee,2020-01-01 0:00
687c10f5e7e9fed8c4bd83e7,IOWA BANKERS MORTGAGE CORP,,,,,,,PO BOX 950,JOHNSTON,IA,50131,Mortgagee,2020-01-01 0:00
687c10f5e7e9fed8c4bd83ea,JAMES B. NUTTER & COMPANY,ISAOA / ATIMA,,,816-751-6993,800-886-9632,,P.O. BOX 10346,KANSAS CITY,MO,64171-0346,,2020-01-01 0:00
687c10f5e7e9fed8c4bd8411,MERCHANTS & FARMERS,,,,,,,Po Box 7068,Natchitoches,LA,71457,Mortgagee,2020-01-01 0:00
687c10f5e7e9fed8c4bd841e,MIKON FINANCIAL SERVICES,ISAOA / ATIMA,,,,,,"6405 N.W. 36TH STREET, SUITE 125",MIAMI,FL,33166,,2020-01-01 0:00
687c10f5e7e9fed8c4bd8425,MORTGAGE INVESTORS CORPORATION,ISAOA,,,877-376-2013,800-891-6678,,P.O. BOX 4025,CORAOPOLIS,PA,15108-6942,,2020-01-01 0:00
687c10f5e7e9fed8c4bd8429,MORTGAGE SERVICE CENTER,ISAOA / ATIMA,,,937-525-4210,800-210-8849,,P.O. BOX 5954,SPRINGFIELD,OH,45501-5954,,2020-01-01 0:00
687c10f5e7e9fed8c4bd842f,MR COOPER (INTENTE PRIMERO CON NATIONSTAR),ISAOA / ATIMA,insurancedepartment@ihaveinsurance.com,https://www.ihaveinsurance.com/mrcooper,833-856-3571,833-811-3064,,PO BOX 29411\n,PhoENIX,AZ,85038,Algunos estan bajo Mr cooper y otros bajo el mortgage original Nationstar,2020-01-01 0:00
687c10f5e7e9fed8c4bd845a,OLD KENT MORTGAGE ISAOA/ATIM SERVICES A,,,,,,,P.O. Box 11038,Orange,CA,92856,Mortgagee,2020-01-01 0:00
687c10f5e7e9fed8c4bd846b,"PENNYMAC LOAN SERVICES, LLC",Its Successors and/or Assigns,pennymac@mycoverageinfo.com,https://www.mycoverageinfo.com/agent,866-235-1215,866-318-0208,866-318-0208,P.O. Box 6618,SPRIENGFIELD,OH,45501-6618,Mortgagee,2025-08-07 11:26
687c10f5e7e9fed8c4bd846d,PEOPLE'S MORTGAGE CORP.,ISAOA/ATIMA,,,,,,P.O. Box 3203,New Bedford,MA,2741,Mortgagee,2020-01-01 0:00
687c10f5e7e9fed8c4bd829e,AMERICAN PACIFIC MORTGAGE CORP,,,,,,,3000 LAVA RIDGE CT STE 200,ROSEVILLE,CA,95661,Mortgagee,2020-01-01 0:00
687c10f5e7e9fed8c4bd82a7,"AMERINATIONAL COMMUNITY SERVICES, INC.",,taxins@amerinatls.com,,813-282-4855,813-282-4800,,"5301 WEST CYPRESS STREET, SUITE 103",TAMPA,FL,33607,,2020-01-01 0:00
687c10f5e7e9fed8c4bd82a8,"AMERIPRISE BANK, FSB",ISAOA,,,904-245-7222,866-492-2265,,P.O. BOX 44092,JACKSONVILLE,FL,32231-4092,,2020-01-01 0:00
687c10f5e7e9fed8c4bd82bb,AUDI FINANCIAL,"PO Box 650303Cockeysville, MD 21065",,,,,,,,,,Loss Payee,2020-01-01 0:00
687c10f5e7e9fed8c4bd82c3,BANK OF AMERICA,"PO Box 2759Jacksonvl, FL 32203-2759",,,,,,,,,,Loss Payee,2020-01-01 0:00
687c10f5e7e9fed8c4bd82d1,BAXTER CREDIT UNION,ISAOA,,,847-522-4993,800-388-7000,,PO Box 144,Houghton,Mi,18619,Mortgagee,2020-01-01 0:00
687c10f5e7e9fed8c4bd82df,BMW FINANCIAL SERVICES,"PO Box 8002Hilliard, OH 43026",,,,,,,,,,Loss Payee,2020-01-01 0:00
687c10f5e7e9fed8c4bd82ea,BUSEY BANK,"ISAOA, ISAOA",,,217-326-5282,800-672-8739,,"P.O. BOX 17310, PO Box 17310",URBANA,IL,61803-7310,Mortgagee,2020-01-01 0:00
687c10f5e7e9fed8c4bd82f0,"CALIBER HOME LOANS, INC.",ISAOA / ATIMA,,,937-525-4120,866-825-9268,866-825-9268,P.O. BOX 7731,SPRINGFIELD,OH,45501-7731,Mortgagee,2020-01-01 0:00
687c10f5e7e9fed8c4bd82f3,CAPITAL CITY BANK,ISAOA,,,850-402-7969,800-245-7194,,P.O. BOX 900,TALLAHASSEE,FL,32303-0900,,2020-01-01 0:00
687c10f5e7e9fed8c4bd8305,CENTRAL MORTGAGE COMPANY,,,,501-716-5494,800-366-2132,,801 JOHN BARROW RD STE 1,LITTLE ROCK,AR,72205,Mortgagee,2020-01-01 0:00
687c10f5e7e9fed8c4bd8315,CIT BANK NA,ISAOA/ATIMA,,,,800-343-5756,,PO Box 100511,FLORENCE,SC,29502,Mortgagee,2020-01-01 0:00
687c10f5e7e9fed8c4bd8317,CITADEL SERVICING CORPORATION DBA ACRA LENDING ,ISAOA / ATIMA,insurancedepartment@ihaveinsurance.com,https://ihaveinsurance.com/citadelservicing,949-771-1683,888-800-7661,,PO BOX 29411 ,Phoenix,AZ,85038-9411,Mortgagee,2025-09-08 10:09
687c10f5e7e9fed8c4bd832d,CNL BANK,ISAOA / ATIMA,,,,904-899-8000,,P.O. BOX 4971,ORLANDO,FL,32802,,2020-01-01 0:00
687c10f5e7e9fed8c4bd835c,EQUIFIRST CORPORATION,ISAOA/ATIMA,,,,,,PO Box 11893,Jacksonville,FL,32239,Mortgagee,2020-01-01 0:00
687c10f5e7e9fed8c4bd8370,FIFTH THIRD BANK NA,ISAOA ATIMA,,https://www.expressinsuranceinfo.com/3142240,888-276-6583,1-800-473-6934,,PO BOX 391197,SOLON,OH,44139-8197,,2020-01-01 0:00
687c10f5e7e9fed8c4bd8379,FIRST COMMERCIAL BANK OF TAMPA BAY,ISAOA,,,813-282-1208,813-287-0500,,4600 WEST KENNEDY BLVD.,TAMPA,FL,33609,,2020-01-01 0:00
687c10f5e7e9fed8c4bd838a,FIRST PREFERRED MORTGAGE CO.,ISAOA,,,810-982-9949,800-700-5896,,800 MICHIGAN STREET,PORT HURON,MI,48060,,2020-01-01 0:00
687c10f5e7e9fed8c4bd838d,FIRST STATE BANK OF ARCADIA,ISAOA,,,863-494-1554,863-494-2220,,400 N. BREVARD AVENUE,ARCADIA,FL,34266,,2020-01-01 0:00
687c10f5e7e9fed8c4bd8399,FLORIDA HOUSING FINANCE CORPORATION,,,,850-488-9809,850-488-4198,,"227 NORTH BRONOUGH STREET, SUITE 5000",TALLAHASSEE,FL,32301,,2020-01-01 0:00
687c10f5e7e9fed8c4bd83a6,GMAC MORTGAGE CORPORATION,ISAOA/ATIMA,,,866-336-9021,800-256-9962,,P.O. Box 57003,Irvine,CA,92619-7003,Mortgagee,2020-01-01 0:00
687c10f5e7e9fed8c4bd83c6,HOME POINT FINANCIAL CORPORATION,"ISAOA/ATIMA, ISAOA/ATIMA",insurancedepartment@ihaveinsurance.com,https://www.ihaveinsurance.com/homepoint,248-878-2440,833-811-3064,,PO BOX 5017,Troy,MI,48007,Mortgagee,2020-01-01 0:00
687c10f5e7e9fed8c4bd83cb,HOMEPLUS MORTGAGE,,,,609-538-4005,866-858-0118,,,,,,Mortgagee,2020-01-01 0:00
687c10f5e7e9fed8c4bd83d2,HSBC AUTO FINANCE,"PO Box 3075Coraopolis, PA 15108",,,,,,,,,,Loss Payee,2020-01-01 0:00
687c10f5e7e9fed8c4bd83ec,"JLM DIRECT FUNDING, LTD",ISAOA/ATIMA,,,,,,9235 Katy Freeway #160,Houston,TX,77024,Mortgagee,2020-01-01 0:00
687c10f5e7e9fed8c4bd83f3,"LAKEVIEW LOAN SERVICING, LLC C/O LOANCARE LLC",ISAOA ATIMA,,https://mycoverageinfo.com/agent,843-413-7127,866-822-0890,,PO Box 202049,Florence,SC,29502,"https://lakeview.com/contact-us/<br>Lakeview no es un mortgage, es un Servicer para  Loancare, M&TBank, flagstar, mr cooper, y ServiceMac. Debe averiguar cual es el Mortgage y enviar la poliza al Mortgage, no a Lakeview., Mortgagee",2025-07-14 9:04
687c10f5e7e9fed8c4bd83fb,LIBERTY HOME EQUITY SOLUTIONS,ISAOA,,,,866-654-0020,,"10951 WHITE ROCK ROAD, SUITE 200",RANCHO CORDOVA,CA,95671,,2020-01-01 0:00
687c10f5e7e9fed8c4bd8426,"MORTGAGE LENDER NETWORK, USA",ISAOA/ATIMA,,,,,,"213 Court St., 3rd Flood",Middletown,CT,6457,Mortgagee,2020-01-01 0:00
687c10f5e7e9fed8c4bd842d,MOUNTAIN WEST FINANCIAL INC,,,,,,,PO BOX 202028,FLORENCE,SC,29502,Mortgagee,2020-01-01 0:00
687c10f5e7e9fed8c4bd8436,NATIONSTAR MORTGAGE LLC,ISAOA,mrcooper@mycoverageinfo.com,https://www.mycoverageinfo.com/mrcooper,800-687-4729,866-825-9267,,P.O. BOX 7729,SPRINGFIELD,OH,45501-7729,,2020-01-01 0:00
687c10f5e7e9fed8c4bd8438,"NATIONSTAR MORTGAGE, LLC, ISAOA/ATIMA ATTN: CUSTOMER SERVICE","PO Box 7729Springfield, OH 45501",,,,,,866-825-9267,,,,Loss Payee,2020-01-01 0:00
687c10f5e7e9fed8c4bd8442,NEW DAY FINANCIAL LLC,ISAOA ATIMA,,https://www.newdayusa.com/,855-993-1716,,,PO BOX 29411\n,PHOENIX,AZ,85038-9411,,2020-01-01 0:00
687c10f5e7e9fed8c4bd8444,NEW PENN FINANCIAL,ISAOA/ATIMA,,,248-878-2370,888-673-5521,,PO BOX 7050,Troy,,,Mortgagee,2020-01-01 0:00
687c10f5e7e9fed8c4bd8458,"OCWEN LOAN SERVICING, LLC","ISAOA, ISAOA / ATIMA, ISAOA / ATIMA",,,866-807-1814,866-317-7661,800-256-9962,"P.O. BOX 659826, P.O. BOX 6723, P.O. BOX 4025",SAN ANTONIO,TX,78265-9126,,2020-01-01 0:00
687c10f5e7e9fed8c4bd8461,PACIFIC UNION FINANCIAL LLC,ISAOA/ATIMA,PacificTeam@pfic.com,,877-926-5130,855-211-9698,,PO BOX 7071,TROY,MI,48007-7071,Mortgagee,2020-01-01 0:00
687c10f5e7e9fed8c4bd8462,"PACIFIC UNION FINANCIAL, LLC ",ISAOA,,,248-8782420,877-348-4000,,P.O. BOX 7071,TROY,MI,48007-7071,877-9265130,2020-01-01 0:00
687c10f5e7e9fed8c4bd827e,21 MORTGAGE CORP,,21stinsurancetracking@21stmortgage.com,,866-761-2100,866-727-4819,,PO BOX 477,Knoxville,TN,37901,Mortgagee test,2020-01-01 0:00
687c10f5e7e9fed8c4bd8283,"ABN AMRO MORTGAGE GROUP, INC",ISAOA/ATIMA,,,,800-783-8900,,PO Box 57068,Irvine,CA,92619-7068,Mortgagee,2020-01-01 0:00
687c10f5e7e9fed8c4bd8294,AMERICA'S SERVICING COMPANY,ISAOA / ATIMA,,,937-525-4100,800-842-7654,866-310-1387,P.O. BOX 5106,SPRINGFIELD,OH,45501-5106,,2020-01-01 0:00
687c10f5e7e9fed8c4bd829a,AMERICAN HOME MORTGAGE SERVICES,,,,,800-648-9605,,,,,,Mortgagee,2020-01-01 0:00
687c10f5e7e9fed8c4bd82ab,AMTRUST BANK,ISAOA,,,,,,P.O. BOX 8326,SPRINGFIELD,OH,45501-8326,,2020-01-01 0:00
687c10f5e7e9fed8c4bd82b1,ARIZONA CENTRAL CREDIT UNION,"PO Box 2727Sioux City, IA 51106",docsend@fmq.alliedsolutions.net,,,,,,,,,Loss Payee,2020-01-01 0:00
687c10f5e7e9fed8c4bd82bf,BANC OF CALIFORNIA N A,,,,,,,PO BOX 961292,FORT WORTH,TX,76161,Mortgagee,2020-01-01 0:00
687c10f5e7e9fed8c4bd82d3,BAYVIEW LOAN SERVICING LLC,,,,248-824-7960,877-826-4419,,PO BOX 5933,TROY,MI,48007,Mortgagee,2020-01-01 0:00
687c10f5e7e9fed8c4bd82da,BENEFICIAL FINANCE MTG CORP,ISAOA,,,,877-831-2510,,PO Box 48200,Doraville,GA,30362-1200,Mortgagee,2020-01-01 0:00
687c10f5e7e9fed8c4bd82e5,BRIGHT STAR CREDIT UNION,INSURANCE SERVICE CENTER,,,972-713-6025,888-764-4265,,P.O. BOX 8966,FT. LAUDERDALE,FL,33310-8966,,2020-01-01 0:00
687c10f5e7e9fed8c4bd8301,"CENTER STATE BANK OF FLORIDA, N.A.",ISAOA,,,904-470-2350,888-607-3469,,P.O. BOX 11893,JACKSONVILLE,FL,32239,,2020-01-01 0:00
687c10f5e7e9fed8c4bd8309,CHAMPION MORTGAGE,"ISAOA, ISAOA",,,866-574-3980,866-871-2412,866-646-0433,"P.O. BOX 39457, PO Box 692399",SOLON,OH,44139,Mortgagee,2020-01-01 0:00
687c10f5e7e9fed8c4bd830b,CHARTER ONE MORTGAGE CORP,ISAOA/ATIMA,,,804-627-5767,800-234-6002,,PO Box 5204,Glen Allen,VA,3058-,Mortgagee,2020-01-01 0:00
687c10f5e7e9fed8c4bd831e,CITIZENS BANK N.A.,ISAOA/ATIMA,,https://mycoverageinfo.com/citizensone,843-413-2008,866-826-4904,,P.O. Box 202060,Florence,SC,29502-2060,Mortgagee,2020-01-01 0:00
687c10f5e7e9fed8c4bd8324,CITIZENS SAVINGS BANK,ISAOA,,,309-661-0606,309-661-8700,,PO Box 1207,Bloomington,IL,60127-1207,Mortgagee,2020-01-01 0:00
687c10f5e7e9fed8c4bd8336,COMMUNITY EDUCATORS CREDIT UNION,ISAOA,,,321-639-1528,321-690-2328,,P.O. BOX 565003,ROCKLEDGE,FL,32956-9926,,2020-01-01 0:00
687c10f5e7e9fed8c4bd8339,COMPASS BANK,,,,877-869-5186,800-432-1465,,PO BOX 830953,BIRMINGHAM,AL,35283,Mortgagee,2020-01-01 0:00
687c10f5e7e9fed8c4bd8344,CYPRUS CU,"PO Box 692378San Antonio, TX 78269-2378",,,,866-218-1326,,866-581-3850,,,,Loss Payee,2020-01-01 0:00
687c10f5e7e9fed8c4bd834c,"DITECH FINANCIAL, LLC ",IAOA,,,305-964-2705,800-643-0202,1800-869-4002,P.O. BOX 979282,MIAMI,FL,33197-9282,,2020-01-01 0:00
687c10f5e7e9fed8c4bd8366,FAIRWAY INDEPENDENT MORTGAGE,ISAOA/ATIMA,servicing@fairwaymc.com,See Notes,843-413-7133,800-201-7544,,,,,,Mortgagee<br>https://www.fairway.com/payment-information,2025-06-25 0:00
687c10f5e7e9fed8c4bd8377,FIRST BANK FLORIDA,ISAOA,,,,305-740-7207,,9795 SOUTH DIXIE HIGHWAY,MIAMI,FL,33156,,2020-01-01 0:00
687c10f5e7e9fed8c4bd837a,FIRST COMMUNITY BANK,,,,317-229-6549,800-523-6404,,,,,,Mortgagee,2020-01-01 0:00
687c10f5e7e9fed8c4bd8393,FLAG CREDIT UNION,,,,850-922-4613,800-458-3524,,3115 CONNER BLVD.,TALLAHASSEE,FL,32311,,2020-01-01 0:00
687c10f5e7e9fed8c4bd839c,FRANKLIN AMERICAN MORTGAGE COMPANY,"ISAOA / ATIMA, ISAOA/ATIMA",,,843-413-7133,877-883-1073,877-883-1073,"P.O. BOX 202028, P.O. Box 202028",FLORENCE,SC,29502-2028,Mortgagee,2020-01-01 0:00
687c10f5e7e9fed8c4bd83a7,"GMAC MORTGAGE, LLC",ISAOA / ATIMA,,,866-336-9021,800-256-9962,,P.O. BOX 4025,CORAOPOLIS,PA,15108-6942,,2020-01-01 0:00
687c10f5e7e9fed8c4bd83b7,GROW FINANCIAL FEDERAL CREDIT UNION,c/o CENLAR    ISAOA,,,972-713-9487,813-837-2451,,P.O. BOX 89639,TAMPA,FL,33689-0410,,2020-01-01 0:00
687c10f5e7e9fed8c4bd83be,GUILD MORTGAGE COMPANY,ISAOA,insurancedepartment@guildmortgage.net,,858-346-1104,800-365-4441,,P.o. Box 85304,San Diego,CA,92186,Mortgagee,2020-01-01 0:00
687c10f5e7e9fed8c4bd83c8,HOMEBOUND MORTGAGE,ISAOA/ATIMA,,,,,,150 Water Tower Circle,Colchester,VT,5446,Mortgagee,2020-01-01 0:00
687c10f5e7e9fed8c4bd83ca,HOMELOANSERV,ISAOA/ATIMA,support@homeloanserv.com,,888-218-9257,800-526-7145,,P.O. Box 818007,Cleveland,,,Mortgagee,2020-01-01 0:00
687c10f5e7e9fed8c4bd83ce,HOMESTREET BANK,,,,,,,601 UNION ST STE 2000,SEATTLE,WA,98101,Mortgagee,2020-01-01 0:00
687c10f5e7e9fed8c4bd83d1,HOUSTON FEDERAL CREDIT UNION,,,,281-243-0776,,,16320 Kensington Dr.,Sugar Land,TX,77479,Mortgagee,2020-01-01 0:00
687c10f5e7e9fed8c4bd83d9,IBERIABANK,ISAOA / ATIMA,,,337-359-1790,941-366-1050,,P.O. BOX 12440,NEW IBERIA,LA,70562,,2020-01-01 0:00
687c10f5e7e9fed8c4bd83e4,"INTERCONTINENTIAL CAPITAL GROUP, INC",,,,602-801-2368,,,,,,,Mortgagee,2020-01-01 0:00
687c10f5e7e9fed8c4bd83e5,INTERLINC MORTGAGE,,,,855-640-4865,866-242-7514,,,,,,Mortgagee,2020-01-01 0:00
687c10f5e7e9fed8c4bd83e9,JAMES B NUTTER AND COMPANY,ISAOA,,https://mci3.mycoverageinfo.com/mci3/www/pages/views/Index.htm#/PolicyUpdate,,800-875-7334,,PO BOX 10346,Kansas City,MO,64171,Mortgagee,2020-01-01 0:00
687c10f5e7e9fed8c4bd842a,MORTGAGE SOLUTIONS FINANCIAL,ISAOA,,,855-640-4865,,,P.O. Box 961292,Ft. Worth,TX,76161-0292,Mortgagee,2020-01-01 0:00
687c10f5e7e9fed8c4bd8435,NATIONS LENDING CORPORATION C/O LOANCARE,ISAOA/ATIMA,,,843-413-7127,866-822-0890,,PO BOX 202049,FLORENCE,SC,29502-2049,,2020-01-01 0:00
687c10f5e7e9fed8c4bd8463,"PARAMOUNT EQUITY MORTGAGE, LLC",,,,,866-776-4937,,PO BOX 5914,SANTA ROSA,CA,95402,Mortgagee,2020-01-01 0:00
687c10f5e7e9fed8c4bd828b,ALERUS FINANCIAL,"3137 32nd Ave SFargo, ND 58103",,,,,,,,,,Loss Payee,2020-01-01 0:00
687c10f5e7e9fed8c4bd82cc,BANK OF THE WEST,"ISAOA/ATIMA, PO Box 2000Omaha, NE 68103",,,,888-915-2327,888-217-9929,"PO Box 1115, 800-827-7500",Omaha,NE,68101,"Mortgagee, Loss Payee",2020-01-01 0:00
687c10f5e7e9fed8c4bd82f2,"CAPITAL BANK, N.A.",ISAOA,,,919-645-3388,800-639-5111,305-453-7739,P.O. BOX 7286,NATCHITOCHES,LA,71457,,2020-01-01 0:00
687c10f5e7e9fed8c4bd830a,CHARLES SCHWAB,ISAOA,,,,,,P.O. BOX 5954,SPRINGFIELD,OH,45501-5954,,2020-01-01 0:00
687c10f5e7e9fed8c4bd833c,COVINGTON INDUSTRIAL BANK INC,ISAOA/ATIMA,,,630-226-4228,630-226-4220,,333 Quadrangle Ave,Bolingbrook,IL,60490,Mortgagee,2020-01-01 0:00
687c10f5e7e9fed8c4bd8342,CSE FEDERAL CREDIT UNION,,,,,,,2154 Swisco Rd,Sulphur,LA,70665,Mortgagee,2020-01-01 0:00
687c10f5e7e9fed8c4bd8355,ELEVATIONS CREDIT UNION,ISAOA,insurancedocs@ihaveinsurance.com,http://ihaveinsurance.com/mortgage,855-640-4865,877-849-9267,,PO BOX 961292,FT WORTH,TX,76161,"Mortgagee<br>https://www.elevationscu.com/mortgage-resources?faq=0,1",2020-01-01 0:00
687c10f5e7e9fed8c4bd8367,FAIRWINDS CREDIT UNION,ISAOA,,,407-206-0441,800-443-6887,407-277-5045,P.O. BOX 690808,SAN ANTONIO,TX,78249-0808,,2020-01-01 0:00
687c10f5e7e9fed8c4bd836c,FIDELITY BANK,,insurance@bankwithfidelity.com,,,504-569-3430,,PO BOX 1007,WICHITA,KS,67201,Mortgagee,2020-01-01 0:00
687c10f5e7e9fed8c4bd837d,FIRST FEDERAL BANK OF FLORIDA,"ISAOA / ATIMA, ISAOA/ATIMA",,,,386-754-0090,855-499-6843,"P.O. BOX 2029, PO Box 202049",LAKE CITY,FL,32056,"eXT. 3123, Mortgagee",2020-01-01 0:00
687c10f5e7e9fed8c4bd838c,FIRST RESIDENTIAL MORTGAGE SERVICES CORP.,ISAOA / ATIMA,,,201-503-8095,866-208-8343,,570 SYLVAN AVENUE,ENGLEWOOD CLIFFS,NJ,7632,,2020-01-01 0:00
687c10f5e7e9fed8c4bd838e,FIRST TECHNOLOGY FEDERAL CREDIT UNION,,,,503-526-3298,855-744-8585,,PO BOX 702747,Dallas,TX,75370,Mortgagee,2020-01-01 0:00
687c10f5e7e9fed8c4bd839d,FREEDOM MORTGAGE CORPORATION,ISAOA / ATIMA,,https://expressinsuranceinfo.com/3140505,866-751-9324,866-222-9005,855-690-5900,PO Box 5050,TROY,MI,48007-5050,"Call | 866-222-9005 Fax | 866-751-9324 freedomteam@pfic.com Freedom Mortgage Corporation ISAOA ATIMA PO Box 5050 Troy, MI 48007 Mortgagee Details  Submit Documents - ExpressInsuranceInfo  Reference ID 3140505 | 855-690-5900 (Customer Service) | CustomerCare@freedommortgage.com (Customer Service) Last Updated  June 25, 2025 at 11:45:51 AM",2025-06-25 0:00
687c10f5e7e9fed8c4bd839f,GATE CITY BANK,"PO Box 924524Fort Worth, TX 76124",,,,,,,,,,Loss Payee,2020-01-01 0:00
687c10f5e7e9fed8c4bd83d3,HSBC BANK USA NA,"ISAOA/ATIMA, ISAOA/ATIMA",,,855-640-4865,855-527-8400,855-806-4660,"P.O. BOX 961292, PO Box 5954",FORTH WORTH,TX,76161-0292,Mortgagee,2020-01-01 0:00
687c10f5e7e9fed8c4bd83f0,KIA MOTOR FINANCE,"PO Box 20809Fountain Valley, CA 92728",,,,,,,,,,Loss Payee,2020-01-01 0:00
687c10f5e7e9fed8c4bd8441,NEW CENTURY,ISAOA/ATIMA,,,,,,"18400 Von Karmen, Suite 1000",Irvine,CA,92612,Mortgagee,2020-01-01 0:00
687c10f5e7e9fed8c4bd844a,NORTH AMERICAN SAVINGS BANK,ISAOA,insurance@nasb.com,,816-316-458,800-677-6272,,903 E 104TH ST STE 400,KANSAS CITY,MO,64131,,2020-01-01 0:00
687c10f5e7e9fed8c4bd8469,PELICAN STATE CREDIT UNION,,,,,,,,,,,Mortgagee,2020-01-01 0:00
687c10f5e7e9fed8c4bd846e,PHH MORTGAGE CORPORATION,ISAOA/ATIMA,,,937-525-4210,888-882-1855,,PO Box 5954,Springfield,OH,45501-5954,Mortgagee,2025-07-19 19:57
687c10f5e7e9fed8c4bd847c,PRIMELENDING,ISAOA/ATIMA,,,,,,PO BOX 202028,FLORENCE,SC,29502,Mortgagee,2020-01-01 0:00
687c10f5e7e9fed8c4bd8483,PUBLIX EMPLOYEES CREDIT UNION,ISAOA / ATIMA,,,863-682-4355,800-226-6673,,P.O. BOX 1000,LAKELAND,FL,33802-1000,,2020-01-01 0:00
687c10f5e7e9fed8c4bd848d,"RELIANCE FIRST CAPITAL, LLC",ISAOA / ATIMA,,,866-316-4795,877-281-9779,,"270 SOUTH SERVICE ROAD, SUITE 25",MELVILLE,NY,11747,,2020-01-01 0:00
687c10f5e7e9fed8c4bd8494,REVERSE MORTGAGE FUNDING LLC,ISAOA,,,440-505-2000,866-871-2412,,PO BOX 39457,Solon,OH,44139,Mortgagee,2020-01-01 0:00
687c10f5e7e9fed8c4bd8498,RIVERWOOD BANK,"PO Box 458Bemidji, MN 56619-0458, ISAOA",,,,,,1260 Paul Bunyan Dr NW,Bemidji,MN,56601,"Loss Payee, Mortgagee",2020-01-01 0:00
687c10f5e7e9fed8c4bd849e,ROUNDPOINT MORTGAGE SERVICING LLC,ISAOA / ATIMA,insurance@roundpointmortgage.com,https://expressinsuranceinfo.com/3145043,947.207.0186,855-576-0031,947.207.0186,P.O. Box 10210,Daytona Beach,FL,32120-0210,https://roundpointmortgage.com/faq-category/insurance/ - 855-576-0031 M-F 8am-8pm ET,2025-12-31 09:45
687c10f5e7e9fed8c4bd84a4,SAFCU,,,,210-258-1732,210-258-1800,,,,,,Mortgagee,2020-01-01 0:00
687c10f5e7e9fed8c4bd84ac,SCHOOLSFIRST FEDERAL CU,,,,,,,PO BOX 202028,FLORENCE,SC,29502,Mortgagee,2020-01-01 0:00
687c10f5e7e9fed8c4bd84cd,"SPECIALIZED LOAN SERVICING, LLC",ISAOA,,https://mycoverageinfo.com/,678-475-8763,800-441-4145,,P.O. BOX 620188,ATLANTA,GA,30362,,2020-01-01 0:00
687c10f5e7e9fed8c4bd84e0,SUNTRUST BANK,"ISAOA / ATIMA, PO Box 792270San Antonio, TX 78279",,,678-459-6105,866-515-2139,,P.O. BOX 47047,ATLANTA,GA,30362,"Equity Lines or Second Mortgage, Loss Payee",2020-01-01 0:00
687c10f5e7e9fed8c4bd84f9,TRANSAMERICA MORTGAGE CO.,ISAOA/ATIMA,,,,,,"2501 Oak Lawn, 7th Flood",Dallas,TX,45219,Mortgagee,2020-01-01 0:00
687c10f5e7e9fed8c4bd8477,PNC BANK N.A.,ISAOA / ATIMA,pnc@mycoverageinfo.com,https://www.mycoverageinfo.com/agent,937-324-7101,800-822-5626,,P.O. BOX 7433,SPRINGFIELD,OH,45501,0# twice to get connected to a representative sooner,2020-01-01 0:00
687c10f5e7e9fed8c4bd847e,PRIVATE & FUNDING,,,,,800-696-8199,,,,,,Mortgagee,2020-01-01 0:00
687c10f5e7e9fed8c4bd8482,"PROVIDENT FUNDING ASSOCIATES, LP",ISAOA,,,707-547-4081,800-696-8199,,PO Box 5914,Santa Rosa,CA,95402-5914,Mortgagee,2020-01-01 0:00
687c10f5e7e9fed8c4bd8497,RIDGELINE FINANCIAL,"12401 S 450 E Ste A1Draper, UT 84020-0000",,,,801-890-0543,,801-407-4033,,,,Loss Payee,2020-01-01 0:00
687c10f5e7e9fed8c4bd849f,"RP FUNDING, INC.",ISAOA,insurancedepartment@ihaveinsurance.com,https://ihaveinsurance.com/mortgage,1-855-640-4865,321-397-4420,,P. O. 961292,Fort Worth,TX,76161-0292,,2020-01-01 0:00
687c10f5e7e9fed8c4bd84a6,SAN DIEGO CNTY CR UN % MIDWEST,,,,,,,PO BOX 39159,SOLON,OH,44139,Mortgagee,2020-01-01 0:00
687c10f5e7e9fed8c4bd84cc,SPECIALIZED LOAN SERVICING LLC,ISAOA/ATIMA,,,678-475-8763,800-441-4145,,PO Box 620188,Doraville,GA,30362-2188,Mortgagee,2020-01-01 0:00
687c10f5e7e9fed8c4bd84de,SUNCOAST SCHOOLS FEDERAL CREDIT UNION,ISAOA,suncoastmtg@imcovered.com,,866-752-7879,866-382-3526,813-621-7511,P.O. BOX 310139,TAMPA,FL,33680-0139,,2020-01-01 0:00
687c10f5e7e9fed8c4bd84f5,TIB BANK,ISAOA / ATIMA,,,866-549-7570,866-855-0624,,P.O. BOX 230,ROCKY HILL,CT,6067,,2020-01-01 0:00
687c10f5e7e9fed8c4bd8504,UNION SAVINGS BANK,,,,,,,8534 E KEMPER RD,CINCINNATI,OH,45249,Mortgagee,2020-01-01 0:00
687c10f5e7e9fed8c4bd8517,"USAA, FSB",ISAOA,,,937-525-4210,888-882-1855,,P.O. BOX 5954,SPRINGFIELD,OH,45501-5954,,2020-01-01 0:00
687c10f5e7e9fed8c4bd8522,VOLVO CAR FINANCIAL SERVICES,"6150 Omni Park DrMobile, AL 36609",,,,,,,,,,"Loss Payee - Theabove is for loans.for leases: PO Box 390509; Minneapolis, MN 55439.",2020-01-01 0:00
687c10f5e7e9fed8c4bd8475,PLAZA HOME MORTGAGE,"ISAOA, ISAOA/ATIMA",,,858-346-1208,888-882-1855,,"4820 EASTGATE MALL, STE. 100, P.O. Box 5954",SAN DIEGO,CA,92121-1993,Mortgagee,2020-01-01 0:00
687c10f5e7e9fed8c4bd847b,"PRIMARY RESIDENTIAL MORTGAGE, INC.",ISAOA / ATIMA,,https://www.expressinsuranceinfo.com/3142363,(248) 710-1685, (888) 350-4614,(800)748-4424,PO BOX 391320,SOLON,OH,44139,"Mortgagee, AKA PRMI",2025-09-06 09:32
687c10f5e7e9fed8c4bd8481,PROVIDENT FUNDING,ISAOA,,,707-547-4081,800-696-8199,888-547-4050,P.O. BOX 5914,SANTA ROSA,CA,95402,,2020-01-01 0:00
687c10f5e7e9fed8c4bd8499,"RMS FBO, FINANCE OF AMERICA",,,,866-790-3451,866-504-3129,,,,,,Mortgagee,2020-01-01 0:00
687c10f5e7e9fed8c4bd84a8,SANTANDER CONSUMER USA INC,"PO Box 183Minneapolis, MN 55480-0183",,,,,,,,,,Loss Payee,2020-01-01 0:00
687c10f5e7e9fed8c4bd84b0,SECURITY NATIONAL MORTGAGE,,,,843-413-7133,855-753-6200,,PO Box 202028,Florence,SC,29502-2028,Mortgagee,2020-01-01 0:00
687c10f5e7e9fed8c4bd84bf,SIB MORTGAGE CORP. - IVY MORTGAGE,ISAOA/ATIMA,,,,,,1250 Route 28,Branchburg,NJ,8876,Mortgagee,2020-01-01 0:00
687c10f5e7e9fed8c4bd84d4,STATE OF NEW YORK MRTG AGENCY,,,,,,,PO Box 5954,Springfield,OH,45501-5954,Mortgagee,2020-01-01 0:00
687c10f5e7e9fed8c4bd84d6,STEARNS LENDING,ISAOA/ATIMA,,,843-413-7127,855-703-7266,,PO Box 202049,Florence,SC,29502-2049,Mortgagee,2020-01-01 0:00
687c10f5e7e9fed8c4bd84ed,"THE CROSSFIRE FINANCIAL NETWORK, INC.",ISAOA / ATIMA,,,888-227-3806,305-270-5522,,"9485 SUNSET DRIVE, SUITE A-225",MIAMI,FL,33173,,2020-01-01 0:00
687c10f5e7e9fed8c4bd84ef,THE MONEY SOURCE INC.,ISAOA/ATIMA,,,937-525-8897,877-521-0263,,PO Box 1194,Springfield,OH,45501,Mortgagee,2020-01-01 0:00
687c10f5e7e9fed8c4bd84f0,"THE MORTGAGE FIRM, INC.",ISAOA / ATIMA,,,855-640-4865,855-230-0462,,PO Box 961292,FORT WORTH,TX,76161,,2020-01-01 0:00
687c10f5e7e9fed8c4bd84f1,THIRD FEDERAL SAVINGS & LOAN,ISAOA/ATIMA,,,,330-225-8855,,PO Box 248,Amelia,OH,45102-0248,Mortgagee,2020-01-01 0:00
687c10f5e7e9fed8c4bd851b,VALON MORTGAGE INC,ISAOA,valon@ihaveinsurance.com,https://ihaveinsurance.com/valon,,833-828-0431,,PO Box 29415,Phoenix,AZ,85038-9415,Mortgage <br>https://help.valon.com/hc/en-us/articles/4405741245460-Updating-the-Mortgagee-Clause-on-Your-Certificate-of-Insurance,2025-07-14 16:58
687c10f5e7e9fed8c4bd8525,WASHINGTON FEDERAL,,,,,,,425 PIKE ST,SEATTLE,WA,98101,Mortgagee,2020-01-01 0:00
687c10f5e7e9fed8c4bd8484,QUANTUM SERVICING CORP.,ISAOA,,,843-413-7985,877-817-3266,,P.O. BOX 202070,FLORENCE,SC,29502-2070,,2020-01-01 0:00
687c10f5e7e9fed8c4bd8491,RESURGENT CAPITAL SERVICE,ISAOA / ATIMA,,,866-467-9082,800-365-7107,,P.O. BOX 2463,GREENVILLE,SC,29602,,2020-01-01 0:00
687c10f5e7e9fed8c4bd84a3,SABINE STATE BANK & TRUST CO,ISAOA,,,,,,PO Box 180,Many,La,71449,Mortgagee,2020-01-01 0:00
687c10f5e7e9fed8c4bd84ab,SCHAEFFER MORTGAGE ISAOA/ATIM CORP. A,,,,,,,5 Buttrick Road,Londonderry,NH,3053-,Mortgagee,2020-01-01 0:00
687c10f5e7e9fed8c4bd84ad,SEACOAST NATIONAL BANK,ISAOA / ATIMA,,,772-569-4000,772-287-4000,,P.O. BOX 9012,STUART,FL,34995-9012,,2020-01-01 0:00
687c10f5e7e9fed8c4bd84ae,SECURITY BANK USA,"PO Box 1630Bemidji, MN 56619",,,,218-444-1570,,PO Box 1630,Bemidji,MN,56619,"Loss Payee, Mortgagee",2020-01-01 0:00
687c10f5e7e9fed8c4bd84e5,SWBC MORTGAGE,ISAOA,,,,800-460-6990,,"9311 SAN PEDRO AVE., SUITE 100",SAN ANTONIO,TX,78216,,2020-01-01 0:00
687c10f5e7e9fed8c4bd84f2,THIRD FEDERAL SAVINGS & LOAN ASSOC. OF CLEVELAND,ISAOA / ATIMA,,,216-271-7208,216-441-6000,,P.O. BOX 703047,DALLAS,TX,75370-3047,Do not abbreviate Third as 3rd\nAcceptable to show Fereral as Fed. and Savings as Sav.,2020-01-01 0:00
687c10f5e7e9fed8c4bd84f3,THRIVENT FINANCIAL,,,,,866-242-7514,,,,,,Mortgagee,2020-01-01 0:00
687c10f5e7e9fed8c4bd84fa,TRIAD FINANCIAL SERVICES INC,ISAOA / ATIMA,escrow@triadfs.com,,866-874-2334,,,,,,,,2020-01-01 0:00
687c10f5e7e9fed8c4bd8519,UTAH FIRST CREDIT UNION,"200 E South TempleSalt Lake City, UT 84111-1348",,,,801-377-6288,,,,,,Loss Payee,2020-01-01 0:00
687c10f5e7e9fed8c4bd851f,VILLAGE CAPITAL & INVESTMENT LLC,ISAOA ATIMA,villagecapital@ihaveinsurance.com,,866-880-7175,888-515-8035,,P.O. Box 29217,Phoenix,AZ,85038,Mortgagee,2025-08-06 14:47
687c10f5e7e9fed8c4bd8526,"WASHINGTON MUTUAL BANK, FA",ISAOA/ATIMA,,,,800-247-8915,,PO Box 100564,Florence,SC,29501-0564,Mortgagee,2020-01-01 0:00
687c10f5e7e9fed8c4bd8539,"WELLS FRAGO BANK, N.A",ISAOA,,,678-459-9219,,,PO BOX 8546,SPRINGFIELD,OH,45501,,2020-01-01 0:00
687c10f5e7e9fed8c4bd8478,PNC BANK NA,ISAOA/ATIMA,,,937-324-7101,888-229-5429,,PO Box 7433,Springfield,OH,45501-7433,Mortgagee,2020-01-01 0:00
687c10f5e7e9fed8c4bd8488,"RBMG, INC.",ISAOA/ATIMA,,,,,,P.O. Box 2975,Corapolis,PA,15108,Mortgagee,2020-01-01 0:00
687c10f5e7e9fed8c4bd848c,REGIONS BANK D/B/A REGIONS MORTGAGE,ISAOA,,https://mycoverageinfo.com/agent,843-413-7805,888-723-4316,,P.O. BOX 200401,FLORENCE,SC,29502-0401,,2020-01-01 0:00
687c10f5e7e9fed8c4bd84a5,SALEM CO-OPERATIVE BANK,ISAOA/ATIMA,,,,,,3 South Broadway P.O. Box 67,Salem,NH,3079,Mortgagee,2020-01-01 0:00
687c10f5e7e9fed8c4bd84b1,SECURITY NATIONAL MRTG CO ISAOA,,,,,,,PO BOX 202028,FLORENCE,SC,29502,Mortgagee,2020-01-01 0:00
687c10f5e7e9fed8c4bd84b5,SELENE FINANCE,ISAOA/ATIMA,selene@imcovered.com,https://imcovered.com/agent?submissionId=0d83739d-6add-43f2-a6e7-c6aa244b4a95,(866) 816-6837,(866) 318-1084,,PO BOX 461470,SAN ANTONIO,TX,78246-1470,Mortgagee<br> https://www.selenefinance.com/insurance-department,2025-09-09 13:00
687c10f5e7e9fed8c4bd84b9,SETERUS INC,ISAOA,,,855-640-4870,866-745-9798,,PO Box 57048,Irving,CA,92619-7048,Mortgagee,2020-01-01 0:00
687c10f5e7e9fed8c4bd84c8,SOUTHWEST LA CREDIT UNION,,,,,337-477-9190,,PO Box 2115,Natchitoches,LA,71457,Mortgagee,2020-01-01 0:00
687c10f5e7e9fed8c4bd84d8,STERLING BANK & TRUST FSB,,,,,,,1 TOWNE SQ STE 1900,SOUTHFIELD,MI,48076,Mortgagee,2020-01-01 0:00
687c10f5e7e9fed8c4bd8501,ULTIMA BANK MINNESOTA,"101 Shevlin Ave SWBemidji, MN 56601",,,,,,,,,,Loss Payee,2020-01-01 0:00
687c10f5e7e9fed8c4bd8503,UMPQUA BANK,ISAOA,,,,,,PO BOX 961292,FT WORTH,TX,76161,Mortgagee,2020-01-01 0:00
687c10f5e7e9fed8c4bd8505,UNITED AUTO CREDIT,"PO Box 9945Newport Beach, CA 92658-1945",,,,866-847-4035,,,,,,Loss Payee,2020-01-01 0:00
687c10f5e7e9fed8c4bd8508,UNITED STATES OF AMERICA ACTING THROUGH RURAL,DEVELOPMENT   ISAOA,,,314-457-4568,800-414-1226,,P.O. BOX 668776,ST. LOUIS,MO,63166,,2020-01-01 0:00
687c10f5e7e9fed8c4bd8512,"US BANK, N.A. C/O US BANK HOME MORTGAGE",ISAOA,usbank@ihaveinsurance.com,https://www.ihaveinsurance.com/usbank,831-296-1656,833-249-6395,,PO Box 961045,Fort Worth,TX,76161-0045,https://www.usbank.com/customer-service/knowledge-base/KB0069900.html,2020-01-01 0:00
687c10f5e7e9fed8c4bd8515,USAA BANK,"PO Box 25145Lehigh Valley, PA 18002",,,,,,,,,,Loss Payee,2020-01-01 0:00
687c10f5e7e9fed8c4bd851c,VANDERBILT MORTGAGE & FINANCE,,,,865-380-3613,800-804-9389,,PO BOX 9770,MARYVILLE,TN,37802,Mortgagee,2020-01-01 0:00
687c10f5e7e9fed8c4bd848a,REGIONAL ACCEPTANCE CORP,"PO Box 2430Sioux City, IA 51106-0430",docsend@fmq.alliedsolutions.net,,,866-319-1597,,,,,,Loss Payee,2020-01-01 0:00
687c10f5e7e9fed8c4bd84c4,SIWELL INC. DBA CAPITAL MORTGAGE SERVICE OF TEXAS,ISAOA,,,806-791-5403,,,P.O. BOX 6338,LOBBOCK,TX,79493-6338,,2020-01-01 0:00
687c10f5e7e9fed8c4bd84ee,THE HUNTINGTON NATIONAL BANK,"ISAOA / ATIMA, ISAOA/ATIMA",,https://expressinsuranceinfo.com/3075982,888-240-7886,855-255-2946,855-255-2946,"PO BOX 5072, PO BOX 718",TROY,MI,48007-5072,Mortgagee,2020-01-01 0:00
687c10f5e7e9fed8c4bd851e,VEROS CREDIT,"PO Box 421669Atlanta, GA 30342-8669",insurance@veroscredit.com,,,,,,,,,Loss Payee,2020-01-01 0:00
687c10f5e7e9fed8c4bd8527,WASHINGTON STATE EMPLOYEES CU,,,,,,,PO BOX WSECU,OLYMPIA,WA,98507,Mortgagee,2020-01-01 0:00
687c10f5e7e9fed8c4bd852b,WELLS FARGO BANK NA #591,ISAOA,,,,800-288-3212,,PO Box 100591,Florence,SC,29502-0591,Mortgagee,2020-01-01 0:00
687c10f5e7e9fed8c4bd8531,"WELLS FARGO BANK, N.A. #472",ISAOA,,https://mycoverageinfo.com/agent,,888-882-1838,,P.O. BOX 100574,FLORENCE,SC,29502-0574,,2020-01-01 0:00
687c10f5e7e9fed8c4bd8535,"WELLS FARGO BANK, N.A. #936",ISAOA,,https://mycoverageinfo.com/agent,843-413-2058,,,P.O. BOX 100515,FLORENCE,SC,29502-0515,,2020-01-01 0:00
687c10f5e7e9fed8c4bd848e,RESIDENTIAL BANCORP,,,,,,,PO BOX 961292,FT WORTH,TX,76161,Mortgagee,2020-01-01 0:00
687c10f5e7e9fed8c4bd84af,"SECURITY BANK, N.A.",,,,1-855-640-4865,954-971-9890,,1450 SOUTH SR. 7,NORTH LAUDERDALE,FL,33863,,2020-01-01 0:00
687c10f5e7e9fed8c4bd84c7,SOUTHWEST AIRLINES FCU,,,,214-956-3991,800-262-5325,,,,,,Mortgagee,2020-01-01 0:00
687c10f5e7e9fed8c4bd84cf,SPIRIT OF TEXAS BANK SSB,,,,317-229-6549,800-998-0761,,PO Box FB,College Station,TX,77840,Mortgagee,2020-01-01 0:00
687c10f5e7e9fed8c4bd84db,STONEHAM CO-OPERATIVE BANK,ISAOA/ATIMA,,,,,,P.O. Box 2547,Reston,VA,22090-0547,Mortgagee,2020-01-01 0:00
687c10f5e7e9fed8c4bd84e7,TAMPA BAY FEDERAL CREDIT UNION,ISAOA,,,813-247-9278,813-247-9278,,P.O. BOX 7492,TAMPA,FL,33673-7492,,2020-01-01 0:00
687c10f5e7e9fed8c4bd84f8,TOYOTA MOTOR CREDIT CORP,"PO Box 105386Atlanta, GA 30348-5386",,,,,,,,,,Loss Payee - Thisis used for both loans and leases.,2020-01-01 0:00
687c10f5e7e9fed8c4bd84fc,TROPICAL FINANCIAL CREDIT UNION,ISAOA / ATIMA,,,954-499-6719,954-517-7572,,P.O. BOX 57046,IRVINE,CA,92619-7046,,2020-01-01 0:00
687c10f5e7e9fed8c4bd851a,UTAH HOUSING CORPORATION,,insurance@uthc.org,,801-902-8301,801-902-8250,,PO Box 70569,Salt Lake City,UT,84170-0569,Mortgagee,2020-01-01 0:00
687c10f5e7e9fed8c4bd8534,"WELLS FARGO BANK, N.A. #751",ISAOA,,https://mycoverageinfo.com/agent,843-413-2015,800-472-9319,,P.O. BOX 8751,SPRINGFIELD,OH,45501-8751,,2020-01-01 0:00
687c10f5e7e9fed8c4bd853c,"WESTSTAR MORTGAGE, INC.",ISAOA / ATIMA,,,,,,P.O. BOX 5914,SANTA ROSA,CA,95402,,2020-01-01 0:00
687c10f5e7e9fed8c4bd853d,WHITNEY BANK,,,,877-308-8757,866-700-9324,,,,,,Mortgagee,2020-01-01 0:00
687c10f5e7e9fed8c4bd847a,POWER FINANCIAL CREDIT UNION,ISAOA / ATIMA,,,954-538-4467,954-538-4400,,2020 NW 150 AVE.,PEMBROKE PINES,FL,33028,,2020-01-01 0:00
687c10f5e7e9fed8c4bd84a1,RUSHMORE SERVICING,ISAOA ,rushmoreservicing@mycoverageinfo.com,https://www.mycoverageinfo.com/agent,,877-888-4606,,PO Box 7729,Springfield,OH,45501,https://www.rushmoreservicing.com/help-center/escrow/insurance-policy-changes,2020-01-01 0:00
687c10f5e7e9fed8c4bd84b3,SELECT PORTFOLIO SERVICING INC,ISAOA,,,866-801-8177,800-641-2754,,PO Box 7277,Springfield,OH,45501-7277,Mortgagee,2020-01-01 0:00
687c10f5e7e9fed8c4bd84bb,SHAREPOINT LENDING,ISAOA / ATIMA,,,317-708-6848,800-585-9005,,"9721 ORMSBY STATION ROAD, SUITE 150",LOUISVILLE,KY,40223,,2020-01-01 0:00
687c10f5e7e9fed8c4bd84c5,SN SERVICING CORPORATION,ISAOA ATIMA,,,(707) 443-1562,,,P.O. BOX 35,EUREKA,CA,95502,https://www.snsc.com/HelpfulLoanInformation.aspx ,2020-01-01 0:00
687c10f5e7e9fed8c4bd84d2,STAR ONE CREDIT UNION,,,,,,,PO BOX 3643,SUNNYVALE,CA,94088,Mortgagee,2020-01-01 0:00
687c10f5e7e9fed8c4bd84dc,SUBARU AMERICAN CREDIT,"PO Box 390910Minneapolis, MN 55439",,,,,,,,,,"Loss Payee - Theabove is for loans.for leases: PO Box 390858; Minneapolis, MN 55439.",2020-01-01 0:00
687c10f5e7e9fed8c4bd84e1,SUNTRUST MORTGAGE INC.,ISAOA/ATIMA,,,678-459-6105,866-515-2139,,PO Box 47047,Atlanta,GA,30362-0208,Mortgagee,2020-01-01 0:00
687c10f5e7e9fed8c4bd84fd,TRUIST BANK,"ISAOA/ATIMA, ISAOA/ATIMA",,https://mycoverageinfo.com/agent,678-459-6105,866-515-2139,866-515-2139,"PO Box 7952, PO Box 47047",Springfield,OH,45501,Mortgagee,2020-01-01 0:00
687c10f5e7e9fed8c4bd850e,"URBAN FINANCIAL GROUP, INC.",ISAOA / ATIMA,,,866-582-0457,888-777-3311,,P.O. BOX 690230,SAN ANTONIO,TX,78569,,2020-01-01 0:00
687c10f5e7e9fed8c4bd8529,WELLS FARGO BANK NA,"PO Box 53439Pheonix, AZ 85072-3439, ISAOA",,,,,,"PO Box 621530, PO Box 621530",Atlanta,GA,21530,"Home equity and lines of credit onlyMortgagee, Loss Payee, Mortgagee",2020-01-01 0:00
687c10f5e7e9fed8c4bd8537,WELLS FARGO FINANCIAL,ISAOA/ATIMA,,,,,,PO Box 54107,Los Angeles,CA,,Mortgagee,2020-01-01 0:00
687c10f5e7e9fed8c4bd853b,WESTSTAR MORTGAGE CORPORATION,ISAOA/ATIMA,insurance@westloan.com,,505-889-3350,800-640-0635,,PO BOX 25400,ALBUQUERQUE,,,Mortgagee,2020-01-01 0:00
687c10f5e7e9fed8c4bd847d,PRIORITY ONE CREDIT UNION,ISAOA,,,,800-626-6574,,P.O. BOX 144,HOUGHTON,MI,49931,,2020-01-01 0:00
687c10f5e7e9fed8c4bd848b,REGIONS BANK,"ISAOA/ATIMA, PO Box 1984Birmingham, AL 35201",,https://mycoverageinfo.com/regions,843-413-7805,888-723-4316,,PO Box 200401,FLORENCE,SC,29502,"Also known as Regions MortgageMortgagee, Loss Payee",2020-01-01 0:00
687c10f5e7e9fed8c4bd84b4,SELECT PORTFOLIO SERVICING INC.,ISAOA,,https://mycoverageinfo.com/AGENT,866-801-8177,800-641-2754,,P.O. BOX 7277,SPRINGFIELD,OH,45501-7277,,2020-01-01 0:00
687c10f5e7e9fed8c4bd84b7,SERVICEMAC LLC,ISAOA ATIMA,insurancedepartment@ihaveinsurance.com,https://www.ihaveinsurance.com/servicemac,833-856-3571,833-811-3065,,,,,,,2020-01-01 0:00
687c10f5e7e9fed8c4bd84b8,SERVISOLUTIONS A DEPT OF ALABAMA HOPO BOX 242967,,,,,,,"MONTGOMERY, AL 36124",,,,Mortgagee,2020-01-01 0:00
687c10f5e7e9fed8c4bd84c0,SIERRA PACIFIC MORTGAGE,,,,,855-478-0372,,PO BOX 961292,FT WORTH,TX,76161,Mortgagee,2020-01-01 0:00
687c10f5e7e9fed8c4bd84d5,"STATEBRIDGE COMPANY, LLC",ISAOA,,,303-290-7516,866-466-3360,,"4600 SOUTH SYRACUSE STREET, SUITE 700",DENVER,CO,80237,,2020-01-01 0:00
687c10f5e7e9fed8c4bd84df,SUNFLOWER BANK NA,ISAOA ATIMA,mortgageinsurance@sunflowerbank.com,https://www.myinsuranceinfo.com/,972-996-1908,800.998.0761,1-800-331-4799,PO Box 3368,Carmel,IN,46082-3368,Mortgagee [FKA: Guardian Mortgage]<br>docsend@fmq.alliedsolutions.net<br>https://www.sunflowerbank.com/mortgage-lending/mortgage-education-center/home-loan-faqs/#FAQ268,2025-07-08 0:00
687c10f5e7e9fed8c4bd8502,UMB BANK,"PO Box 419810Kansas City, MO 64141",,,,,,,,,,Loss Payee,2020-01-01 0:00
687c10f5e7e9fed8c4bd8523,VYSTAR CREDIT UNION,ISAOA / ATIMA,mortgageinsurance@vystarcu.org,,904-779-8519,904-777-6000,,P.O. BOX 41145,JACKSONVILLE,FL,32203-1145,,2020-01-01 0:00
687c10f5e7e9fed8c4bd8538,WELLS FARGO HOME MTG #106,,,,,,,PO BOX 5106,SPRINGFIELD,OH,45501,Mortgagee,2020-01-01 0:00
687c10f5e7e9fed8c4bd8473,PLATINUM MORTGAGE,,,,,866-822-0890,,,,,,Mortgagee,2020-01-01 0:00
687c10f5e7e9fed8c4bd84a0,"RUSHMORE LOAN MANAGEMENT SERVICES, LLC",ISAOA/ATIMA,,,866-257-4121,866-735-2998,,P.O. Box 692409,San Antonio,TX,78269-2409,Mortgagee,2020-01-01 0:00
687c10f5e7e9fed8c4bd84a2,SAAB FINANCIAL,"PO Box 8143Cockeysville, MD 21030",,,,,,,,,,Loss Payee,2020-01-01 0:00
687c10f5e7e9fed8c4bd84b6,SENECA MORTGAGE SERVICING LLC,,,,,,,PO BOX 202080,FLORENCE,SC,29502,Mortgagee,2020-01-01 0:00
687c10f5e7e9fed8c4bd84be,SHELLPOINT MORTGAGE SERVICING,ISAOA/ATIMA,insdocs@myinsuranceportal.com,https://Expressinsuranceinfo.com/2919836,248-781-9300,877-491-7277,800-365-7107,PO BOX 7050,TROY,MI,48007-7050,Mortgagee,2025-08-22 10:32
687c10f5e7e9fed8c4bd84d3,STATE BRIDGE,,,,425-609-3599,855-753-0603,,,,,,Mortgagee,2020-01-01 0:00
687c10f5e7e9fed8c4bd84ec,TEXAS DOW EMPLOYEE CREDIT UNION,,,,979-238-8393,,,"1001 FM 2004,",Lake Jackson,TX,77566,Mortgagee,2020-01-01 0:00
687c10f5e7e9fed8c4bd84ff,TRUSTCO BANK,ISAOA,,,407-667-7784,407-659-5705,,"2450 MAITLAND CENTER PARKWAY, SUITE 302",MAITLAND,FL,32751,,2020-01-01 0:00
687c10f5e7e9fed8c4bd8506,UNITED SECURITY FINANCIAL C/O DOVENMUEHLE MORTGAGE,ISAOA,,,949-465-7253,800-669-4268,,P.O. BOX 57046,IRVINE,CA,92619-7046,,2020-01-01 0:00
687c10f5e7e9fed8c4bd8509,"UNITED WHOLESALE MORTGAGE, LLC",ISAOA /ATIMA,uwm@mycoverageinfo.com,https://mycoverageinfo.com/agent,843-413-7133,888-464-2432,609-963-3965,PO BOX 202028,FLORENCE,SC,29502,Mortgagee - https://www.myuwmloan.com/help-center/escrow/insurance-policy-changes,2020-01-01 0:00
687c10f5e7e9fed8c4bd850c,UNIVERSITY FEDERAL CU,"PO Box 9350Austin, TX 78766-9350",ahofheins@ucreditu.com,,,866-649-1127,801-481-8866,"866-279-7626, PO Box 58025",Salt Lake City,UT,84158-0025,"Loss Payee, Mortgagee",2020-01-01 0:00
687c10f5e7e9fed8c4bd851d,VELOCITY COMMUNITY FEDERAL CREDIT UNION,ISAOA / ATIMA,,,800-872-4517,561-775-2525,,P.O. BOX 30669,PALM BEACH GARDENS,FL,33420-0669,,2020-01-01 0:00
687c10f5e7e9fed8c4bd8520,"VIRTUAL BANK, A DIV. OF SABADELL UNITED BANK, N.A.",ISAOA / ATIMA c/o CENLAR,,,,877-998-2265,,P.O. BOX 202028,FLORENCE,SC,29502-2028,,2020-01-01 0:00
687c10f5e7e9fed8c4bd8489,"REAL TIME RESOLUTIONS, INC.",ISAOA / ATIMA,,,,877-469-7325,,P.O. BOX 36655,DALLAS,TX,75235,,2020-01-01 0:00
687c10f5e7e9fed8c4bd849a,"ROCKET MORTGAGE, LLC",ISAOA,rocketmortgage@mycoverageinfo.com,https://mycoverageinfo.com/agent,855-703-9194,1-800-8634332,,PO Box 202070,Florence,SC,29502,,2020-01-01 0:00
687c10f5e7e9fed8c4bd849c,ROLLS ROYCE FINANCIAL SERVICES,"PO Box 8002Hilliard, OH 43026",,,,,,,,,,Loss Payee,2020-01-01 0:00
687c10f5e7e9fed8c4bd84aa,"SAXON MORTGAGE SERVICES, INC.",ISAOA / ATIMA,,,843-413-7888,866-694-0677,,P.O. BOX 202076,FLORENCE,SC,29502-2076,,2020-01-01 0:00
687c10f5e7e9fed8c4bd84c2,SIGNATURE FEDERAL CREDIT UNION,,,,,800-336-0284,,,,,,Mortgagee,2020-01-01 0:00
687c10f5e7e9fed8c4bd84ce,SPIRE CREDIT UNION,"PO Box 130670Roseville, MN 55113",,,,,,,,,,Loss Payee,2020-01-01 0:00
687c10f5e7e9fed8c4bd84d9,STONEGATE MORTGAGE CORP,ISAOA/ATIMA,sgminsurance@stonegatemtg.com,,248-878-2440,800-686-2404,,PO BOX 5017,Troy,MI,48007,Mortgagee,2020-01-01 0:00
687c10f5e7e9fed8c4bd84da,STONEGATE MORTGAGECORPORATION,ISAOA / ATIMA,,,972-267-1826,800-798-5522,,P.O. BOX 701134,DALLAS,TX,75370,,2020-01-01 0:00
687c10f5e7e9fed8c4bd84e4,SUPERIOR BANK,ISAOA / ATIMA,,,,877-222-1866,,P.O. BOX 2568,BIRMINHAM,AL,35203,,2020-01-01 0:00
687c10f5e7e9fed8c4bd84e6,SWBC MORTGAGE CORP,ISAOA/ATIMA,,,843-413-7133,609-883-3900,,PO BOX 202028,FLORENCE,SC,29502,Mortgagee,2020-01-01 0:00
687c10f5e7e9fed8c4bd84eb,TDECU,,,,979-238-8393,888-833-7358,,,,,,Mortgagee,2020-01-01 0:00
687c10f5e7e9fed8c4bd84f4,TIAA BANK MORTGAGE,ISAOA,,https://mycoverageinfo.com/tiaabank,678-459-6125,888-882-3837,,PO BOX 260138,Atlanta,,,Mortgagee,2020-01-01 0:00
687c10f5e7e9fed8c4bd84f6,TOTAL BANK,,,,,,,2720 CORAL WAY,MIAMI,FL,33145,,2020-01-01 0:00
687c10f5e7e9fed8c4bd84f7,TOWNE MORTGAGE,ISAOA/ATIMA,i@townemortgage.com,,800-979-9977,,,PO BOX 7063,TROY,MI,48007,"csr@townemortgage.com, SRequests@TowneMortgage.com",2020-01-01 0:00
687c10f5e7e9fed8c4bd8507,"UNITED SHORE FINANCIAL SERVICES, LLC",ISAOA,,,707-547-4081,855-281-8800,,P.O. BOX 5914,SANTA ROSA,CA,95402-5914,,2020-01-01 0:00
687c10f5e7e9fed8c4bd850b,UNIVERSITY FEDERAL CREDIT UNION,ISAOA/ATIMA,,,,,,PO BOX 39159,Solon,OH,44139,Mortgagee,2020-01-01 0:00
687c10f5e7e9fed8c4bd8510,US BANK,"PO Box 3490Oshkosh, WI 54903",,,,800-365-7772,,,,,,Loss Payee,2020-01-01 0:00
687c10f5e7e9fed8c4bd8511,US BANK NA,ISAOA,,,877-893-5667,800-365-7772,,PO Box 1551,Springfield,OH,45501,Mortgagee,2020-01-01 0:00
687c10f5e7e9fed8c4bd8518,UTAH COMMUNITY CU,"PO Box 1900Provo, UT 84603-1900",loans@uccu.com,,,,,801-223-7600,,,,Loss Payee,2020-01-01 0:00
687c10f5e7e9fed8c4bd8472,"PLANET HOME LENDING, LLC",ISAOA / ATIMA,,https://expressinsuranceinfo.com/2778518,248-878-2350,855-211-9690,,PO Box 5023,Troy,MI,48007-5023,test,2020-01-01 0:00
687c10f5e7e9fed8c4bd8476,PNC BANK,"PO Box 808Pittsburg, PA 15230",,,,,,,,,,Loss Payee,2020-01-01 0:00
687c10f5e7e9fed8c4bd8492,RESURGENT CAPITAL SERVICES,,,,866-467-9082,800-365-7107,,,,,,Mortgagee,2020-01-01 0:00
687c10f5e7e9fed8c4bd849b,ROCKY MOUNTAIN MORTGAGE CO,,,,,,,PO BOX 371370,EL PASO,TX,79937,Mortgagee,2020-01-01 0:00
687c10f5e7e9fed8c4bd84b2,SECURITY SERVICE FEDERAL CU,"PO Box 792510San Antonio, TX 78279-2510",insurancedocuments@ssfcu.org,,,866-238-1392,,800-880-8212,,,,Loss Payee,2020-01-01 0:00
687c10f5e7e9fed8c4bd84bd,SHELL FEDERAL CREDIT UNION,,,,713-844-0694,,,,,,,Mortgagee,2020-01-01 0:00
687c10f5e7e9fed8c4bd8500,TRUSTMARK NATIONAL BANK,,,,248-824-7089,866-734-8164,,,,,,Mortgagee,2020-01-01 0:00
687c10f5e7e9fed8c4bd8514,USA ACTING THROUGH THE RURAL HOUSING SERVICE,ISAOA,,,,800-414-1226,,PO Box 66876,Saint Louis,MO,63166,Mortgagee,2020-01-01 0:00
687c10f5e7e9fed8c4bd8516,USAA FEDERAL SAVINGS BANK,ISAOA,,https://mycoverageinfo.com/policy,800-687-4729,800-531-8722,,PO Box 961292,Fort Worth,TX,76161,Mortgagee,2020-01-01 0:00
687c10f5e7e9fed8c4bd8524,WACHOVIA MORTGAGE CORPORATION,ISAOA/ATIMA,,,937-324-6616,866-246-9498,,P.O. Box 57664,Jacksonville,FL,32241-7664,Mortgagee,2020-01-01 0:00
687c10f5e7e9fed8c4bd8528,WELLS FARGO AUTO ACCEPTANCE,"PO Box 2075Coraopolis, PA 15108",,,,,,,,,,Loss Payee,2020-01-01 0:00
687c10f5e7e9fed8c4bd852e,WELLS FARGO BANK NA #747,ISAOA/ATIMA,,,,,,PO Box 5747,Springfield,OH,45501-5747,Mortgagee,2020-01-01 0:00
687c10f5e7e9fed8c4bd8536,WELLS FARGO DEALER SERVICES,"PO Box 5075Coraopolis, A 15108-5057",,,,866-595-1762,,,,,,Loss Payee,2020-01-01 0:00
687c10f5e7e9fed8c4bd853a,WESTERN BANK,"PO Box 120Cass Lake, MN 56633",,,,,,,,,,Loss Payee,2020-01-01 0:00
687c10f5e7e9fed8c4bd853e,WINTRUST MORTGAGE,ISAOA/ATIMA,,,,,,Po Box 220,Carmel,IN,46082,Mortgagee,2020-01-01 0:00
687c10f5e7e9fed8c4bd848f,RESIDENTIAL CREDIT SOLUTIONS,ISAOA,,,866-574-4001,866-913-5173,,P.O. BOX 692330,SAN ANTONIO,TX,78269-2330,,2020-01-01 0:00
687c10f5e7e9fed8c4bd8490,"RESIDENTIAL CREDIT SOLUTIONS, INC.",ISAOA,,,,888-238-4583,,PO Box 692330,San Antonio,TX,78269-2330,Mortgagee,2020-01-01 0:00
687c10f5e7e9fed8c4bd8493,RESURGENT MORTGAGE SERVICING,ISAOA / ATIMA,,,866-467-1184,800-365-7107,,P.O. BOX 2463,GREENVILLE,SC,29602,,2020-01-01 0:00
687c10f5e7e9fed8c4bd8496,"REVERSE MORTGAGE SOLUTIONS, INC.",ISAOA,,,866-790-3451,888-918-1110,,P.O. BOX 690230,SAN ANTONIO,TX,78269-0230,,2020-01-01 0:00
687c10f5e7e9fed8c4bd84ba,"SETERUS, INC.",ISAOA,,,855-640-4870,866-745-9798,,P.O. BOX 57048,IRVINE,CA,92619-7048,,2020-01-01 0:00
687c10f5e7e9fed8c4bd84c1,SIERRA PACIFIC MORTGAGE COMPANY,ISAOA / ATIMA,,,,800-447-3386,,"50 IRON POIN CIRCLE, SUITE 200",FOLSUM,CA,95630,,2020-01-01 0:00
687c10f5e7e9fed8c4bd84ca,SOVERIGN BANK,ISAOA / ATIMA,,,513-388-5189,800-447-7228,,P.O. BOX 628,AMELIA,OH,45102-0628,,2020-01-01 0:00
687c10f5e7e9fed8c4bd84d0,SPRINGLEAF FINANCIAL SERVICES,ISAOA,,,941-755-9743,941-756-0646,,P.O. BOX 3893,EVANSVILLE,IN,47737,,2020-01-01 0:00
687c10f5e7e9fed8c4bd84e2,"SUNTRUST MORTGAGE, INC.",ISAOA / ATIMA,,,678-459-6105,866-515-2139,,P.O. BOX 47047,ATLANTA,GA,30362,First Mortgage,2020-01-01 0:00
687c10f5e7e9fed8c4bd8521,VOLKSWAGON CREDIT INC.,"PO Box 258Minneapolis, MN 55440",,,,,,,,,,"Loss Payee - The aboveis for loans.for leases: PO Box 277; Minneapolis, MN 55440",2020-01-01 0:00
687c10f5e7e9fed8c4bd8530,"WELLS FARGO BANK, N.A.",ISAOA,,https://mycoverageinfo.com/agent,,855-529-7478,,P.O. BOX 621530,ATLANTA,GA,30362,For Equity Lines,2020-01-01 0:00
687c10f5e7e9fed8c4bd8479,PORSCHE FINANCIAL & PORSCHE LEASING LTD,"PO Box 650500Hunt Valley, MD 21065",,,,,,,,,,Loss Payee,2020-01-01 0:00
687c10f5e7e9fed8c4bd84a9,SAUGUS FEDERAL CREDIT UNION,ISAOA/ATIMA,,,,,,448 Lincoln Avenue,Saugus,MA,1906,Mortgagee,2020-01-01 0:00
687c10f5e7e9fed8c4bd84c3,SIRVA MORTGAGE INC,,,,,216-606-4028,,6200 Oak Tree Blvd Suite 300,Independence,OH,44131,Mortgagee,2020-01-01 0:00
687c10f5e7e9fed8c4bd84d1,STANDARD MORTGAGE COMPANY,ISAOA/ATIMA,,,,866-515-7503,,Po Box 792107,San Antonio,TX,78279,Mortgagee,2020-01-01 0:00
687c10f5e7e9fed8c4bd84dd,SUN WEST MORTGAGE COMPANY INC,,insurance@swmc.com,,866-459-1965,800-345-7884,,18000 Studebaker Rd. Suite 200,Cerritos,,,Mortgagee,2020-01-01 0:00
687c10f5e7e9fed8c4bd84e9,TD AUTO FINANCE,"PO Box 9223Farmington, MI 48333",,,,,,,,,,Loss Payee,2020-01-01 0:00
687c10f5e7e9fed8c4bd84fb,TRIDENT MORTGAGE COMPANY % US BAN PO BOX 7298,,,,,,,"SPRINGFIELD, OH 45501",,,,Mortgagee,2020-01-01 0:00
687c10f5e7e9fed8c4bd850a,UNIVERSAL MORTGAGE CORPORATION,ISAOA/ATIMA,,,,,,P.O. Box 2082,Milwaukee,WI,53201,Mortgagee,2020-01-01 0:00
687c10f5e7e9fed8c4bd850f,US AMERIBANK,ISAOA,,,727-260-6611,727-260-6421,,P.O. BOX 17540,CLEARWATER,FL,33762,,2020-01-01 0:00
687c10f5e7e9fed8c4bd852c,WELLS FARGO BANK NA #685,ISAOA,,,,800-288-3212,,PO Box 202050,Florence,SC,29502-0250,Mortgagee,2020-01-01 0:00
687c10f5e7e9fed8c4bd852f,WELLS FARGO BANK NA #936,ISAOA,,https://mci3.mycoverageinfo.com/mci3/www/pages/views/Index.htm#/PolicyUpdate,843-413-2015,866-826-4884,,PO Box 100515,Florence,SC,29501-0515,Mortgagee,2020-01-01 0:00
687c10f5e7e9fed8c4bd8532,"WELLS FARGO BANK, N.A. #512",ISAOA,,https://mycoverageinfo.com/agent,937-324-6616,,,P.O. BOX 7512,SPRINGFIELD,OH,45501-7512,,2020-01-01 0:00
687c10f5e7e9fed8c4bd8471,PLANET HOME LENDING LLC,ISAOA,,,248-878-2350,855-211-9690,,Po Box 5023,Troy,MI,48007,Mortgagee,2020-01-01 0:00
687c10f5e7e9fed8c4bd8474,PLATINUM MORTGAGE COMPANY,ISAOA/ATIMA,,,843-413-7127,866-822-0890,,P.O. Box 202049,Florence,SC,29502-2049,Mortgagee,2020-01-01 0:00
687c10f5e7e9fed8c4bd847f,"PROSPECT MORTGAGE, LLC",ISAOA,,,888-507-6564,877-541-9918,,"222 CHASTAIN MEADOWS COURT NW, SUITE 300",KENNESAW,GA,30144-5896,,2020-01-01 0:00
687c10f5e7e9fed8c4bd8480,"PROSPERITY BANK, NA",,,,281-539-8717,713-226-5300,,2402 North Main,Houston,,,Mortgagee,2020-01-01 0:00
687c10f5e7e9fed8c4bd8487,RBC BANK,ISAOA / ATIMA,,,252-454-8375,252-454-3617,,P.O. BOX 500,ROCKY MOUNT,NC,27802,,2020-01-01 0:00
687c10f5e7e9fed8c4bd8495,"REVERSE MORTGAGE FUNDING, LLC",ISAOA,,,440-505-0146,866-871-2412,,PO BOX 39457,SOLON,OH,44139-0457,,2020-01-01 0:00
687c10f5e7e9fed8c4bd84c6,SONOMA FEDERAL CREDIT UNION,,,,,707-527-6216,,PO Box 2507,Santa Rosa,CA,95405-0507,Mortgagee,2020-01-01 0:00
687c10f5e7e9fed8c4bd84c9,SOVEREIGN BANK,ISAOA/ATIMA,,,,,,P.O. Box 57073,Irvine,CA,92619-7073,Mortgagee,2020-01-01 0:00
687c10f5e7e9fed8c4bd84cb,SPACE COAST CREDIT UNION,ISAOA / ATIMA,,https://www.myinsuranceinfo.com/,321-956-7000,800-447-7228,,PO Box 3220,Carmel,IN,46082,321-752-2303 fax,2025-10-21 0:00
687c10f5e7e9fed8c4bd84e8,TCF MORTGAGE,,,,,866-725-0784,,,,,,Mortgagee,2020-01-01 0:00
687c10f5e7e9fed8c4bd850d,UNIVERSITY OF FLORIDA FEDERAL CREDIT UNION,ISAOA / ATIMA,,,407-380-2080,407-249-0008,,12253 CHALLENDER PARKWAY,ORLANDO,FL,32826-2757,,2020-01-01 0:00
687c10f5e7e9fed8c4bd8513,US SMALL BUSINESS ADMINISTRATION,,,,915-633-7123,800-827-5722,800-659-2955,"801 TOM MARTIN DRIVE #120, 10737 Gateway West, Suite 320",BIRMINGHAM,AL,35211-6424,Mortgagee,2020-01-01 0:00
687c10f5e7e9fed8c4bd852a,WELLS FARGO BANK NA #472,ISAOA,,,,,,PO Box 100574,Florence,SC,29502-0574,Mortgagee,2020-01-01 0:00
687c10f5e7e9fed8c4bd852d,WELLS FARGO BANK NA #708,ISAOA,,,937-525-4108,800-862-4098,,PO Box 5708,Springfield,OH,45501-5708,Mortgagee,2020-01-01 0:00
687c10f5e7e9fed8c4bd8485,QUICKEN LOANS,,,,855-703-9194,855-282-8722,,PO Box 202070,Florence,SC,29502-2070,Mortgagee,2020-01-01 0:00
687c10f5e7e9fed8c4bd8486,"QUICKEN LOANS, INC.",ISAOA,,https://www.mycoverageinfo.com/agent,877-614-7414,855-2828722,800-508-0944,P.O. BOX 717,AMELIA,OH,45102,,2020-01-01 0:00
687c10f5e7e9fed8c4bd84a7,SANTANDER BANK NA,ISAOA ATIMA,insurancedepartment@ihaveinsurance.com,https://www.ihaveinsurance.com/,855-640-4865,412-625-2574,,"PO BOX 961292, PO BOX 628",FORT WORTH,TX,76161-0292,"https://www.ihaveinsurance.com/mortgage, Mortgagee",2020-01-01 0:00
687c10f5e7e9fed8c4bd84bc,SHEFFIELD FINANCIAL,"PO Box 25127Winston-Salem, NC 27114",,,,,,,,,,Loss Payee,2020-01-01 0:00
687c10f5e7e9fed8c4bd84d7,"STEARNS LENDING, INC. C/O LOAN CARE",ISAOA / ATIMA,,,843-413-7127,866-822-0890,,P.O. BOX 202049,FLORENCE,SC,29502-2049,,2020-01-01 0:00
687c10f5e7e9fed8c4bd84e3,"SUNWEST MORTGAGE COMPANY, INC.",ISAOA,,https://expressinsuranceinfo.com/2848174,248-824-7930,8773434943,,PO BOX 7083,Troy,MI,48007-7083,,2020-01-01 0:00
687c10f5e7e9fed8c4bd84ea,"TD BANK, N.A.","ISAOA / ATIMA, ISAOA / ATIMA",,,856-470-1280,800-937-5020,800-328-2119,"P.O. BOX 202049, 32 CHESTNUT STREET",FLORENCE,SC,29502,,2020-01-01 0:00
687c10f5e7e9fed8c4bd84fe,TRUSTAR FEDERAL CREDIT UNION,"601 4th StInternational Falls, MN 56649",,,,,,,,,,Loss Payee,2020-01-01 0:00
687c10f5e7e9fed8c4bd8533,"WELLS FARGO BANK, N.A. #708",ISAOA,,https://mycoverageinfo.com/agent,937-525-4108,866-826-4884,,P.O. BOX 5708,SPRINGFIELD,OH,45501,\n\n\n\nReference Loan Number on all remittance  ,2020-01-01 0:00
68c452b50f94e44f887ab65a,US DEPARTMENT OF HUD,ISAOA/ATIMA C/O Compu-Link Corporation,answers@hud.gov,,888-385-2824,877-622-8525,,"14002 East 21st Street, Suite 300",Tulsa,OK,74134,https://www.hud.gov/helping-americans/mortgage-servicing-contractors,
69174bcfaa3b43d62496e241,AMERANT BANK NA,ISAOA/ATIMA,,,8773158795,8665010773,,PO BOX 1667,COPPELL,TX,75019,,
694ae29b6ba58724845ca39d,A & D MORTGAGE LLC,ISAOAATIMA,,,(877) 903-2967,(305) 760-7000,,1040 S Federal Hwy.,Hollywood,FL,33020,Mortgagee,
694ae29b6ba58724845ca39e,ACOPIA HOME LOANS,ISAOA,,,(615) 859-5644,(855) 447-7210,,P.O. Box 961292,Fort Worth ,TX,76161,Mortgagee,
694ae29b6ba58724845ca39f,ALLIANT CREDIT UNION,,,,(317) 229-6549,(800) 998-0762,,P.O. Box 2700,Sioux City,IA,51106,Mortgagee,
694ae29b6ba58724845ca3a0,AMERICAN BANCSHARES MORTGAGE LLC,ISAOAATIMA,,,,(305) 826-4500,,14261 Commerce Way Suite 100,Miami Lakes,FL,33016,Mortgagee,
694ae29b6ba58724845ca3a1,AMERIHOME MORTGAGE COMPANY LLC CO CENTRAL LOAN ADMINISTRATION & RE,ISAOAATIMA,,,(843) 413-7133  (P.855-501-3035),(800) 290-9101,,P.O. Box 202028,Florence,SC,29502,Mortgagee,
694ae29b6ba58724845ca3a2,ANGEL OAK MORTGAGE SOLUTIONS,ISAOAATIMA,,,(404) 991-5105,(855) 539-4910,,980 Hammond Dr #850,Atlanta,GA,30328,Mortgagee,
694ae29b6ba58724845ca3a3,ARVEST CENTRAL MORTGAGE COMPANY,ISAOAATIMA,,,(844) 890-7206,(800) 344-5327,,P.O. Box 961243,Fort Worth ,TX,76161,Mortgagee,
694ae29b6ba58724845ca3a4,BAC FLORIDA BANK,ISAOA,,,(855) 640-4865,(866) 242-7514,,P.O. Box 961292,Ft. Worth,TX,76161,Mortgagee,
694ae29b6ba58724845ca3a5,BANESCO USA,ISAOA ATIMA,,,loanservicing@banescousa.com,(786) 725-3000,,150 Alhambra Cir Suite 1000,Coral Gables,FL,33134,Mortgagee,
694ae29b6ba58724845ca3a6,BETTER MORTGAGE CORPORATION CO TMS,ISAOA ATIMA,,,(646) 741-2907,(929) 930-6105,,P.O. Box 1194,Springfield,OH,45501,Mortgagee,
694ae29b6ba58724845ca3a7,BISCAYNE BANK NOW IS FIRST CITIZENS MORTGAGE SERVICES,ISAOAATIMA,,,(305) 447-5051,(305) 447-5050,,"3121 Commodore Plaza, Third Floor",Coconut Grove,FL,33133,Mortgagee,
694ae29b6ba58724845ca3a8,BLUE HARBOR LENDING LLC,ISAOAATIMA,,,(305) 570-2488,(800) 748-2583,,7700 N Kendall Dr Suite 300B,Miami,FL,33156,Mortgagee,
694ae29b6ba58724845ca3a9,TRUIST BANK FORMER BRANCH BANKING AND TRUST COMPANY,ISAOAATIMA,,,(937) 525-8927,(888) 882-1836,,P.O. Box 7933,Springfield,OH,45501,Mortgagee,
694ae29b6ba58724845ca3aa,BROKER SOLUTIONS INC DBA NEW AMERICAN FUNDING,ISAOA ATIMA,,,(248) 781-9295,(877) 826-4428,,P.O. Box 5071,Troy,MI,48007,Mortgagee,
694ae29b6ba58724845ca3ab,BTC MORTGAGE LLC CO FCI LENDER SERVICES INC,ISAOA ATIMA,,,(714) 282-2429,(800) 931-2424,,P.O. Box 27370,Anaheim,CA,92809,Mortgagee,
694ae29b6ba58724845ca3ac,CALIBER HOME LOANS INC SERVICED BY SHELLPOINT,ISAOAATIMA,,,(937) 525-4120,(800) 401-6587,,P.O. Box 7731,Springfield,OH,45501,Mortgagee,
694ae29b6ba58724845ca3ad,CARDINAL FINANCIAL COMPANY,ISAOA,,,(855) 640-4865,(412) 625-2574,,P.O. Box 961292,Fort Worth,TX,76161,Mortgagee,
694ae29b6ba58724845ca3ae,CARRINGTON MORTGAGE SCV LLC,ISAOA,,,(440) 505-2000,(866) 871-2412,,P.O.Box 39457,Solon,OH,44139,Mortgagee,
694ae29b6ba58724845ca3af,CASHCALL MORTGAGE CO LOANCARE,ISAOAATIMA,,,(846) 413-7127,(866) 822-0890,,P.O.Box 202049,Florence,SC,29502,Mortgagee,
694ae29b6ba58724845ca3b0,CITIBANK NA EQUITY LINE,ISAOA,,,(937)324-6577,(800) 869-8683,,P.O. Box 7807,Springfield,OH,45501,Mortgagee,
694ae29b6ba58724845ca3b1,CNB OF FLORIDA CITY NATIONAL BANK PREVIOSLY TOTAL BANK,ISAOAATIMA,,,(305) 577-5331,(866) 242-7514,,P.O. Box 261510,Miami,FL,33126,Mortgagee,
694ae29b6ba58724845ca3b2,COMMUNITY LOAN SERVICING LLC,ISAOA,,,(248) 824-7960,(877) 826-4419,,P.O. Box 5933,Troy,MI,48007,Mortgagee,
694ae29b6ba58724845ca3b3,CU MORTGAGE SERVICES INC,ISAOA,,,(800) 297-7960,(800) 998-0761,,"500 Main Street, Ste 100",New Brighton,MN,55112,Mortgagee,
694ae29b6ba58724845ca3b4,DHI MORTGAGE COMPANY LTD,ISAOA ATIMA,,,,(866) 669-4268,,P.O. Box 961292,Fort Worth ,TX,76161,Mortgagee,
694ae29b6ba58724845ca3b5,E MORTGAGE MANAGEMENT LLC,ISAOAATIMA,,,contactus@emmloans.com,(800) 793-9633,,3 Executive Campus Suite 520,Cherry Hill,NJ,08002,Mortgagee,
694ae29b6ba58724845ca3b6,EVERBANK FSA NOW TIAA FSB,ISAOA,,,(678) 459-6125,(888) 492-8335,,P.O. Box 620138,Atlanta,GA,30362,Mortgagee,
694ae29b6ba58724845ca3b7,FBC MORTGAGE LLC DBA HOME LOAN TODAY CO CENLAR,ISAOAATIMA,,,(843) 413-7133,(800) 223-6527,,P.O. Box 202028,Florence ,SC,29502,Mortgagee,
694ae29b6ba58724845ca3b8,FIRSTBANK OF PUERTO RICO DBA FIRSTBANK OF FLORIDA,ISAOA ATIMA,,,(33) 739-5824,(833) 855-7558,,P.O. Box 622,Kennesaw,GA,30156,Mortgagee,
694ae29b6ba58724845ca3b9,FIRST BANK CO CENLAR,ISAOAATIMA,,,(843) 413-7134,(855) 753-6209,,P.O. Box 202028,Florence ,SC,29502,Mortgagee,
694ae29b6ba58724845ca3ba,FIRST CITIZENS MORTGAGE SERVICES,ISAOA ATIMA,,,mortgageescrow@firstcitizens.com,(800) 845-3161,,P.O. Box 11757,Columbia,NC,29291,Mortgagee,
694ae29b6ba58724845ca3bb,FIRST DIRECT LENDING LLC,ISAOAATIMA,,,(888) 498-3351,(949) 383-9679,,15261 Laguna Canyon Road Ste 200,Irvine ,CA,92618,Mortgagee,
694ae29b6ba58724845ca3bc,FIRST HORIZON BANK,ISAOA,,,(855) 640-4865,(866) 641-7832,,P.O. Box 961292,Forth Worth,TX,76161,Mortgagee,
694ae29b6ba58724845ca3bd,FIRST MORTGAGE SOLUTIONS LLC,ISAOA,,,   ,(855) 222-5102,,9201 Ward Parkway,Kansas City,MO,64114,Mortgagee,
694ae29b6ba58724845ca3be,FIRST SAVINGS BANK,ISAOA ATIMA,,,(937) 525-8897,(877) 521-0263,,P.O. Box 1194,Springfield,OH,45501,Mortgagee,
694ae29b6ba58724845ca3bf,FLORIDA COMMUNITY BANK,ISAOA,,,(239) 552-1840,(800) 669-4268,,P.O. Box 961292,Fort Worth ,TX,76161,Mortgagee,
694ae29b6ba58724845ca3c0,FRANKLIN AMERICAN MORTGAGE CO CENLAR,ISAOAATIMA,,,(843) 413-7133,(877) 883-1073,,P.O. Box 202028,Florence,SC,29502,Mortgagee,
694ae29b6ba58724845ca3c1,FREEDOM MORTGAGE CO LOANCARE,ISAOAATIMA,,,(843) 413-2050,(866) 822-0890,,P.O. Box 202049,Florence,SC,29502,Mortgagee,
694ae29b6ba58724845ca3c2,GIBRALTAR PRIVATE BANK AND TRUST CO,ISAOAATIMA,,,(305) 913-4653,(305) 661-5656,,55 Alhambra Plaza 6th Floor,Coral Gables,FL,33134,Mortgagee,
694ae29b6ba58724845ca3c3,GOLDSMITH EQUITY GROUP,,,,(888) 702-1960,(786) 847-7229,,18205 Biscayne Blvd Ste 2226,Aventura,FL,33160,Mortgagee,
694ae29b6ba58724845ca3c4,GREGORY FUNDING LLC,ISAOA,,,(866) 712-5697,(888) 324-3578,,P.O. Box 25430 ,Portland,OR,97298,Mortgagee,
694ae29b6ba58724845ca3c5,GTE FEDERAL CREDIT UNION CO CENTRAL LOAN ADMINISTRATION,ISAOA ATIMA,,,(843) 413-7133,(888) 571-2690,,P.O. Box 202028,Florence,SC,29502,Mortgagee,
694ae29b6ba58724845ca3c6,HAMILTON GROUP FUNDING INC,ISAOA ATIMA,,,(954) 775-2304,(954) 241-2800,,1551 Sawgrass Corporate Pkwy 300,Sunrise,FL,33323,Mortgagee,
694ae29b6ba58724845ca3c7,HAMILTON HOME LOANS,ISAOA ATIMA,,,(855)640-4865,,,P.O. Box 961292,Fort Worth,TX,76161,Mortgagee,
694ae29b6ba58724845ca3c8,HELM BANK USA,ISAOA,,,(305) 329-7289,(305) 379-4356,,999 Brickell Avenue,Miami,FL,33131,Mortgagee,
694ae29b6ba58724845ca3c9,HIGHLANDS RESIDENTIAL MORTGAGE LTD CO CENTRAL LOAN ADMON AND REPORTING,ISAOA ATIMA,,,(843) 413-7133,(855) 753-6204,,P.O. Box 202028,Florence,SC,29502,Mortgagee,
694ae29b6ba58724845ca3ca,HOME FEDERAL BANK OF HOLLYWOOD,ISAOA ATIMA,,,(354) 458-9130,(954) 458-2626,,900 N Federal Highway,Hallandale Bch,FL,33009,Mortgagee,
694ae29b6ba58724845ca3cb,IBANEZ MORTGAGE GROUP LLC DBA USA LOANS,ISAOA,,,,,,10400 Eaton Place Suite 400,Fairfax,VA,22030,Mortgagee,
694ae29b6ba58724845ca3cc,ITHINK FINANCIAL CREDIT UNION FORMER IBM SOUTH EAST,ISAOA ATIMA,,,(561) 226-5412,(561) 982-8734,,P. O. Box 278,Carmel,IN,46082,Mortgagee,
694ae29b6ba58724845ca3cd,LOANDEPOTCOM LLC CO CENLAR,ISAOA ATIMA,,,(843) 413-7133,(888) 801-6593,,P.O. Box 202028,Florence,SC,29502,Mortgagee,
694ae29b6ba58724845ca3ce,LOANWISE FINANCIAL LLC,ISAOAATIMA,,,expressinsuranceinfo.com/2917832,(866) 456-2694,,555 Winderely Place Ste 420,Maitland,FL,32751,Mortgagee,
694ae29b6ba58724845ca3cf,MB FINANCIAL BANK NA,ISAOA,,,(248) 925-4251,(855) 306-7510,,P.O. Box 7059,Troy,MI,48007,Mortgagee,
694ae29b6ba58724845ca3d0,UNITED WHOLESALE MORTGAGE CO CENTRAL LOAN ADMINISTRATION & REPORTING,ISAOAATIMA,,,(843) 413-7133,(800) 219-2236,,P.O. Box 202028,Florence,SC,29502,Mortgagee,
